{"type":"FeatureCollection","features":[{"type":"Feature","properties":{"kind":"farmland","source":"osm","osmType":"way","osmId":41740617,"name":"","landuse":"farmland"},"geometry":{"type":"Polygon","coordinates":[[[4.8110442,45.884403,184.971],[4.8100869,45.883618,206.375],[4.8090467,45.8843731,204.672],[4.8087677,45.8846472,201.271],[4.8075912,45.885759,201.286],[4.808626,45.8863053,185.885],[4.8096559,45.8854334,199.472],[4.8110442,45.884403,184.971]]]}},{"type":"Feature","properties":{"kind":"farmland","source":"osm","osmType":"way","osmId":124373945,"name":"","landuse":"farmland"},"geometry":{"type":"Polygon","coordinates":[[[4.8402954,45.8889027,241.625],[4.8401003,45.8890561,240.902],[4.8398937,45.8890066,240.805],[4.8393802,45.8890231,240.036],[4.8392602,45.8889673,239.854],[4.8384984,45.8887981,235.531],[4.8384905,45.8885589,235.505],[4.8378998,45.8882551,233.989],[4.8375034,45.8881632,231.946],[4.8369076,45.8885407,232.309],[4.8365812,45.8884504,231.901],[4.8366732,45.8882349,217.395],[4.8371748,45.8879773,231.836],[4.8378207,45.8879433,234.195],[4.8380854,45.8877672,234.597],[4.8382597,45.8876713,234.806],[4.8383829,45.8874919,235.079],[4.8384277,45.8873711,235.287],[4.8383383,45.8873484,235.058],[4.8380307,45.8872594,234.655],[4.8377179,45.8868451,233.469],[4.8374012,45.8868416,232.925],[4.8369031,45.8867042,231.442],[4.8371794,45.8862353,232.634],[4.8374218,45.8858115,233.203],[4.8381891,45.8860208,231.861],[4.8384006,45.8857583,219.945],[4.8386188,45.8854557,227.891],[4.8392397,45.8856732,237.956],[4.8403175,45.8861435,242.004],[4.8405108,45.8862354,242.376],[4.8405789,45.8862902,242.531],[4.8406006,45.8864958,242.602],[4.8406379,45.887274,241.946],[4.8406315,45.8875234,241.914],[4.8406362,45.8877606,242.065],[4.8405599,45.8880115,241.058],[4.8402767,45.8887238,242.025],[4.8402954,45.8889027,241.625]]]}},{"type":"Feature","properties":{"kind":"orchard","source":"osm","osmType":"way","osmId":125772694,"name":"","landuse":"orchard"},"geometry":{"type":"Polygon","coordinates":[[[4.8307063,45.8691113,214.132],[4.8310393,45.8691255,207.546],[4.8312945,45.869137,199.061],[4.8313003,45.8688934,197.893],[4.831263,45.8686338,195.601],[4.8313477,45.868322,189.053],[4.8308168,45.8682306,203.421],[4.8307063,45.8691113,214.132]]]}},{"type":"Feature","properties":{"kind":"farmland","source":"osm","osmType":"way","osmId":125772697,"name":"","landuse":"farmland"},"geometry":{"type":"Polygon","coordinates":[[[4.8286503,45.8680219,220.974],[4.8288284,45.8680346,219.877],[4.828904,45.8680747,219.491],[4.8289173,45.868114,219.716],[4.8291608,45.8681275,219.646],[4.8291853,45.8680679,219.509],[4.8292369,45.8679614,219.387],[4.8294976,45.8680054,218.886],[4.8308168,45.8682306,203.421],[4.8307063,45.8691113,214.132],[4.8302735,45.869071,216.299],[4.8302315,45.8692953,215.686],[4.8302118,45.8693235,215.7],[4.8284713,45.8691645,224.032],[4.8285054,45.8689128,223.129],[4.8287697,45.8689385,222.889],[4.8287999,45.8687585,222.289],[4.8288048,45.8687329,222.229],[4.8287631,45.8687285,222.161],[4.8287861,45.8685844,221.682],[4.828559,45.868561,222.6],[4.8286503,45.8680219,220.974]]]}},{"type":"Feature","properties":{"kind":"orchard","source":"osm","osmType":"way","osmId":125774582,"name":"","landuse":"orchard"},"geometry":{"type":"Polygon","coordinates":[[[4.8279761,45.8717186,226.349],[4.828129,45.871614,225.829],[4.8273887,45.8712723,227.87],[4.8272738,45.8713802,227.958],[4.8279761,45.8717186,226.349]]]}},{"type":"Feature","properties":{"kind":"farmland","source":"osm","osmType":"way","osmId":126122320,"name":"","landuse":"farmland"},"geometry":{"type":"Polygon","coordinates":[[[4.8295692,45.8747595,202.157],[4.8297257,45.874397,205.429],[4.8291674,45.8741732,211.804],[4.8288812,45.8745295,207.364],[4.8292583,45.8746591,204.519],[4.8293651,45.8746945,203.698],[4.8293762,45.874698,203.612],[4.8295692,45.8747595,202.157]]]}},{"type":"Feature","properties":{"kind":"farmland","source":"osm","osmType":"way","osmId":126122321,"name":"","landuse":"farmland"},"geometry":{"type":"Polygon","coordinates":[[[4.8262317,45.8734665,203.71],[4.826494,45.8732888,210.594],[4.8265954,45.8732237,213.591],[4.8258074,45.8727733,214.027],[4.8254305,45.8729281,203.147],[4.8254198,45.8729486,202.686],[4.8254493,45.8729794,202.821],[4.8260281,45.8733072,204.366],[4.8262317,45.8734665,203.71]]]}},{"type":"Feature","properties":{"kind":"farmland","source":"osm","osmType":"way","osmId":142876713,"name":"","landuse":"farmland"},"geometry":{"type":"Polygon","coordinates":[[[4.8267587,45.8682194,228.704],[4.8266257,45.8682524,229.255],[4.8264364,45.8682972,230.056],[4.8263765,45.8678426,232.386],[4.8263522,45.8675761,232.861],[4.8263179,45.8672557,237.124],[4.8264235,45.8671235,236.328],[4.8266804,45.8671734,232.579],[4.8267587,45.8682194,228.704]]]}},{"type":"Feature","properties":{"kind":"farmland","source":"osm","osmType":"way","osmId":157863330,"name":"","landuse":"farmland"},"geometry":{"type":"Polygon","coordinates":[[[4.8210133,45.8667041,249.331],[4.8214452,45.8665823,247.697],[4.8217119,45.8664996,246.312],[4.8218461,45.8665025,244.479],[4.8231256,45.8661476,277.994],[4.8231691,45.8662347,276.991],[4.8231843,45.8662563,276.78],[4.8233524,45.8662291,276.422],[4.8236166,45.8661721,273.481],[4.8230827,45.8653603,287.47],[4.8229968,45.8652267,289.008],[4.8231025,45.8651153,289.636],[4.8212762,45.8653519,275.8],[4.8212976,45.8654303,274.234],[4.8212692,45.8655048,275.425],[4.8212118,45.8655461,277.608],[4.8211018,45.8656134,282.174],[4.8209903,45.8656486,284.666],[4.8209232,45.8657252,284.349],[4.8210026,45.8662447,272.908],[4.821001,45.8664181,251.061],[4.8209927,45.8665174,252.078],[4.8210133,45.8667041,249.331]]]}},{"type":"Feature","properties":{"kind":"farmland","source":"osm","osmType":"way","osmId":157863346,"name":"","landuse":"farmland"},"geometry":{"type":"Polygon","coordinates":[[[4.8212921,45.8639285,271.127],[4.8212317,45.8646045,280.77],[4.8211689,45.8651913,281.347],[4.8211823,45.8654303,279.513],[4.8211421,45.8654808,281.085],[4.8209795,45.8655533,286.972],[4.8208287,45.8655982,287.566],[4.8204975,45.8647246,302.02],[4.8205624,45.8644723,303.176],[4.8206877,45.8642825,300.838],[4.8208537,45.8640982,293.562],[4.8211354,45.8639377,277.568],[4.8212921,45.8639285,271.127]]]}},{"type":"Feature","properties":{"kind":"farmland","source":"osm","osmType":"way","osmId":157863353,"name":"","landuse":"farmland"},"geometry":{"type":"Polygon","coordinates":[[[4.824182,45.8690592,239.912],[4.8244029,45.8688571,241.043],[4.8244758,45.8687991,241.493],[4.824582,45.8687259,241.274],[4.8239556,45.867991,250.892],[4.8235694,45.8675408,260.034],[4.8231691,45.867094,266.281],[4.8230611,45.866974,268.402],[4.8230108,45.8669194,269.314],[4.8229055,45.8668085,269.539],[4.8227789,45.866671,270.427],[4.822919,45.8665752,273.271],[4.8226887,45.8663597,272.405],[4.8226462,45.8663171,271.689],[4.8220393,45.8665081,244.932],[4.821987,45.8666789,243.271],[4.8217841,45.8667132,242.343],[4.8217106,45.8666005,244.454],[4.8218461,45.8665025,244.479],[4.8217119,45.8664996,246.312],[4.8214452,45.8665823,247.697],[4.8215408,45.8667319,243.04],[4.8213758,45.8667893,243.291],[4.8218187,45.867426,232.903],[4.8219156,45.8673831,235.165],[4.8221788,45.8676804,247.863],[4.8227273,45.8674409,262.925],[4.8229847,45.867751,259.985],[4.8229129,45.8677849,258.587],[4.8227108,45.8675972,260.916],[4.8222719,45.8677884,249.499],[4.8226138,45.8681861,250.344],[4.8225005,45.8682332,247.883],[4.8225666,45.8683026,247.682],[4.8230351,45.8681045,254.016],[4.8231494,45.8682508,252.429],[4.8232221,45.8683393,251.588],[4.8234957,45.868245,251.547],[4.823824,45.868608,245.773],[4.824182,45.8690592,239.912]]]}},{"type":"Feature","properties":{"kind":"farmland","source":"osm","osmType":"way","osmId":158003394,"name":"","landuse":"farmland"},"geometry":{"type":"Polygon","coordinates":[[[4.8150053,45.8665547,290.561],[4.8157399,45.867172,287.507],[4.8163448,45.8674449,284.735],[4.8175344,45.8679802,283.555],[4.8182331,45.8682921,290.512],[4.8189063,45.8686088,300.327],[4.8190695,45.8684961,290.75],[4.818256,45.8679688,261.712],[4.8177609,45.8677027,262.933],[4.8159802,45.8668878,277.71],[4.8150315,45.8665118,289.771],[4.8150053,45.8665547,290.561]]]}},{"type":"Feature","properties":{"kind":"orchard","source":"osm","osmType":"way","osmId":158209814,"name":"","landuse":"orchard"},"geometry":{"type":"Polygon","coordinates":[[[4.8294218,45.8640091,222.17],[4.8293168,45.8639792,223.515],[4.8292948,45.8639718,223.499],[4.8292237,45.8639507,224.928],[4.8285139,45.8637466,239.227],[4.8283629,45.8639866,239.399],[4.828543,45.8640337,236.409],[4.8289084,45.8641263,228.988],[4.8293154,45.8642295,222.367],[4.8294218,45.8640091,222.17]]]}},{"type":"Feature","properties":{"kind":"farmland","source":"osm","osmType":"way","osmId":159144375,"name":"","landuse":"farmland"},"geometry":{"type":"Polygon","coordinates":[[[4.8190283,45.8688708,299.042],[4.8193185,45.8690758,291.187],[4.8195862,45.8692854,282.714],[4.8197262,45.8694008,279.092],[4.8194145,45.8695805,281.385],[4.8190765,45.8693302,290.641],[4.818884,45.8689936,300.543],[4.8190283,45.8688708,299.042]]]}},{"type":"Feature","properties":{"kind":"farmland","source":"osm","osmType":"way","osmId":159144993,"name":"","landuse":"farmland"},"geometry":{"type":"Polygon","coordinates":[[[4.8119638,45.8709061,344.481],[4.8105691,45.8697631,364.566],[4.8105432,45.8697353,365.493],[4.8102213,45.8698436,359.869],[4.8099361,45.8698901,357.761],[4.808772,45.8693858,372.128],[4.808929,45.869257,377.098],[4.8090291,45.8692936,376.991],[4.8093165,45.8691076,395.016],[4.8096626,45.8689115,412.385],[4.8111217,45.8695147,385.777],[4.8113613,45.8693683,401.954],[4.8115557,45.8692143,405.307],[4.8117788,45.8690292,404.831],[4.8122719,45.8691564,399.747],[4.8129294,45.8693896,388.206],[4.8127658,45.8697313,384.877],[4.8132433,45.8699611,371.569],[4.8128812,45.8703999,369.036],[4.8126184,45.8706129,364.327],[4.8123313,45.8707604,356.031],[4.8119638,45.8709061,344.481]]]}},{"type":"Feature","properties":{"kind":"farmland","source":"osm","osmType":"way","osmId":159144997,"name":"","landuse":"farmland"},"geometry":{"type":"Polygon","coordinates":[[[4.806814,45.8697482,365.567],[4.806422,45.8695738,369.917],[4.8061931,45.869539,370.587],[4.8056218,45.8695904,370.235],[4.8053751,45.8696426,369.97],[4.8048735,45.8693466,375.988],[4.8046387,45.8690422,380.057],[4.8045422,45.8688891,382.232],[4.8045337,45.8687595,383.914],[4.8043786,45.8684221,388.254],[4.804848,45.8679561,394.516],[4.8048516,45.8678948,395.774],[4.8053174,45.8676209,409.802],[4.8056165,45.8678787,408.42],[4.805882,45.8680346,409.294],[4.8060053,45.8680654,410.689],[4.806224,45.8680907,413.103],[4.8067144,45.8680881,417.918],[4.8072492,45.868128,414.995],[4.8074671,45.8682447,414.975],[4.807903,45.8682839,420.287],[4.8081176,45.8684856,411.541],[4.8087099,45.8684877,423.242],[4.8090134,45.8685379,425.233],[4.8089652,45.8687957,408.837],[4.8085092,45.869524,369.372],[4.8072217,45.8690889,383.724],[4.8071717,45.8692488,379.278],[4.806814,45.8697482,365.567]]]}},{"type":"Feature","properties":{"kind":"farmland","source":"osm","osmType":"way","osmId":159145000,"name":"","landuse":"farmland"},"geometry":{"type":"Polygon","coordinates":[[[4.8151286,45.8733863,268.95],[4.8155419,45.8729603,276.134],[4.816136,45.8724505,275.327],[4.8160539,45.8723993,278.357],[4.8145642,45.8713687,316.451],[4.8143786,45.8713915,313.801],[4.8142509,45.8714768,310.945],[4.8138739,45.8718379,307.622],[4.8136379,45.8723279,308.857],[4.8135287,45.872498,307.385],[4.8148714,45.873106,272.414],[4.8151286,45.8733863,268.95]]]}},{"type":"Feature","properties":{"kind":"farmland","source":"osm","osmType":"way","osmId":159472298,"name":"","landuse":"farmland"},"geometry":{"type":"Polygon","coordinates":[[[4.8228474,45.8777973,174.539],[4.8242422,45.8776404,175.86],[4.8245603,45.8776326,174.356],[4.8253848,45.8774033,177.84],[4.8256825,45.8772763,180.331],[4.8258504,45.8770986,185.236],[4.8258515,45.8768935,192.962],[4.8253902,45.8768263,198.129],[4.8252292,45.8766474,200.788],[4.8250629,45.8764696,202.779],[4.8250002,45.8764403,203.134],[4.8248848,45.876464,202.895],[4.8248366,45.8763712,203.698],[4.824842,45.8762591,204.501],[4.8249195,45.8762673,204.423],[4.8246402,45.8760058,206.857],[4.8244359,45.8758573,208.279],[4.8241842,45.8756984,209.558],[4.8241103,45.8756592,209.9],[4.823891,45.8755401,210.814],[4.8238518,45.8755628,210.641],[4.8234597,45.8753714,211.645],[4.8230422,45.8751541,211.725],[4.821233,45.875788,206.295],[4.8211043,45.8755341,203.905],[4.8227103,45.8749931,211.796],[4.8222697,45.8747587,213.241],[4.8219424,45.8745757,213.672],[4.8217587,45.8745331,213.699],[4.8215066,45.8745219,213.107],[4.8210359,45.8745047,209.606],[4.8207878,45.8745256,206.817],[4.820317,45.8746355,207.033],[4.8198503,45.8747886,212.765],[4.8196076,45.8748767,213.122],[4.8196691,45.876301,192.885],[4.820777,45.8762362,193.573],[4.8208414,45.8769607,197.195],[4.8209219,45.8771139,196.755],[4.8210345,45.8772222,198.599],[4.8211525,45.8773006,199.937],[4.8213135,45.8773305,200.646],[4.8215817,45.8772931,199.739],[4.8221825,45.8772334,191.295],[4.8223448,45.8773208,188.604],[4.8228474,45.8777973,174.539]]]}},{"type":"Feature","properties":{"kind":"farmland","source":"osm","osmType":"way","osmId":159472302,"name":"","landuse":"farmland"},"geometry":{"type":"Polygon","coordinates":[[[4.8269555,45.8783001,166.463],[4.8269783,45.878238,169.105],[4.8268671,45.8780166,175.373],[4.8267411,45.8777785,171.613],[4.8269315,45.8777748,171.763],[4.8269756,45.8776246,172.899],[4.8261683,45.8774761,175.389],[4.8258918,45.8778575,170.844],[4.8258786,45.8778757,170.746],[4.8257083,45.8779407,170.197],[4.8212397,45.8786167,173.228],[4.8199362,45.8788781,173.863],[4.8199348,45.8791044,175.848],[4.819967,45.8792277,170.598],[4.8200689,45.8792874,170.294],[4.8202205,45.8794233,169.809],[4.8204887,45.8793524,170.288],[4.8209876,45.879259,170.516],[4.8226492,45.8791455,169.638],[4.8234646,45.8790671,166.848],[4.8239474,45.8789999,166.366],[4.8250578,45.8788393,166.391],[4.8258679,45.8786413,166.365],[4.8269193,45.8783351,166.396],[4.8269555,45.8783001,166.463]]]}},{"type":"Feature","properties":{"kind":"farmland","source":"osm","osmType":"way","osmId":159472303,"name":"","landuse":"farmland"},"geometry":{"type":"Polygon","coordinates":[[[4.8180143,45.8757021,225.123],[4.8174296,45.8752166,232.846],[4.8172647,45.8750948,235.067],[4.817191,45.8749846,236.368],[4.8182415,45.8745295,224.271],[4.8187723,45.8743128,220.694],[4.8190175,45.8745742,215.38],[4.8189276,45.874811,210.103],[4.8187453,45.875121,213.008],[4.8185186,45.8753809,218.101],[4.8182611,45.8755639,222.401],[4.8180143,45.8757021,225.123]]]}},{"type":"Feature","properties":{"kind":"farmland","source":"osm","osmType":"way","osmId":159506579,"name":"","landuse":"farmland"},"geometry":{"type":"Polygon","coordinates":[[[4.8182184,45.8744883,224.754],[4.8178038,45.8738431,236.071],[4.8175776,45.8739165,237.024],[4.817124,45.8740661,241.676],[4.8168249,45.8741656,244.749],[4.8167056,45.8740101,246.626],[4.8166841,45.8738952,250.127],[4.8166452,45.8736786,251.689],[4.8165165,45.8737178,253.32],[4.8164823,45.8736667,254.168],[4.8163907,45.8737019,255.051],[4.8163101,45.8737328,255.764],[4.8160385,45.8738291,257.748],[4.8154718,45.8739551,258.247],[4.8152519,45.8740251,256.08],[4.8145974,45.8742828,265.256],[4.8137735,45.8747394,265.838],[4.8133314,45.8749887,266.43],[4.8131222,45.8750074,268.536],[4.8127703,45.8750793,266.857],[4.8125482,45.8751717,265.396],[4.812427,45.8752997,264.356],[4.8123948,45.8754341,262.257],[4.8124088,45.8754817,261.087],[4.8124785,45.8754593,261.509],[4.8125697,45.8754967,261.848],[4.8125965,45.8755676,260.047],[4.8126448,45.8756199,259.586],[4.8127574,45.8756722,259.219],[4.812854,45.8756423,259.664],[4.8129398,45.8755975,260.382],[4.8131008,45.8756946,259.897],[4.8132671,45.8758067,258.404],[4.8134119,45.8758291,257.783],[4.8135138,45.8758963,256.387],[4.8132585,45.8759869,256.084],[4.8132671,45.8760532,255.272],[4.8133314,45.8761092,254.228],[4.8135407,45.8763109,251.145],[4.8137552,45.8764341,250.203],[4.8139859,45.87652,249.391],[4.8145492,45.8766507,244.957],[4.8148227,45.8766545,243.099],[4.8150373,45.8766283,242.441],[4.8151553,45.8766657,240.858],[4.8152465,45.8767254,239.658],[4.8155362,45.8766843,237.264],[4.8158795,45.876576,234.355],[4.8160619,45.8764939,233.441],[4.8161216,45.8765085,233.159],[4.8160855,45.8763641,233.359],[4.81677,45.8760121,221.81],[4.8168634,45.8759607,221.069],[4.8168022,45.8759187,222.405],[4.8167218,45.8759038,223.31],[4.8166467,45.8758851,224.031],[4.8165715,45.8758664,225.029],[4.8165093,45.8758001,225.232],[4.816534,45.8757432,224.839],[4.8166788,45.8757208,226.656],[4.8166542,45.8756134,230.615],[4.8167003,45.8754743,233.179],[4.816829,45.8754257,234.173],[4.8169578,45.8753473,234.896],[4.8170887,45.8752847,234.924],[4.8171509,45.8752278,235.093],[4.8172228,45.8751615,235.103],[4.8172647,45.8750948,235.067],[4.817191,45.8749846,236.368],[4.8182415,45.8745295,224.271],[4.8182184,45.8744883,224.754]]]}},{"type":"Feature","properties":{"kind":"farmland","source":"osm","osmType":"way","osmId":160451386,"name":"","landuse":"farmland"},"geometry":{"type":"Polygon","coordinates":[[[4.816896,45.8553027,429.818],[4.8167646,45.8552746,434.352],[4.816511,45.8551217,438.513],[4.8163688,45.8550432,437.066],[4.8162588,45.8549815,432.609],[4.8161918,45.8549106,432.211],[4.8156877,45.8547935,405.379],[4.8155333,45.8548396,391.319],[4.815186,45.8547478,384.131],[4.8152305,45.8546096,389.039],[4.8151546,45.8544426,392.063],[4.8150749,45.854264,395.16],[4.8149569,45.8541071,395.029],[4.8148113,45.8538896,397.6],[4.8144312,45.8533972,404.365],[4.8142694,45.8532582,405.897],[4.8141448,45.8531272,409.027],[4.8142779,45.8530348,418.869],[4.8143668,45.8530983,419.109],[4.814932,45.8533889,429.856],[4.8147316,45.8535354,412.879],[4.8147737,45.853643,408.063],[4.8148086,45.8536472,407.071],[4.814892,45.8536572,414.393],[4.8148051,45.8537531,402.363],[4.8153603,45.8538039,430.081],[4.8159,45.8543727,434.545],[4.8153544,45.8545655,394.663],[4.8153785,45.8546393,392.163],[4.8160019,45.8544514,436.845],[4.8163005,45.8546954,442.694],[4.8166492,45.8549701,441.527],[4.8167667,45.8551174,435.582],[4.8168583,45.8552243,431.575],[4.816896,45.8553027,429.818]]]}},{"type":"Feature","properties":{"kind":"farmland","source":"osm","osmType":"way","osmId":161405478,"name":"","landuse":"farmland"},"geometry":{"type":"Polygon","coordinates":[[[4.8089649,45.877659,246.027],[4.8093297,45.8775059,245.275],[4.8096717,45.8774503,247.596],[4.8100593,45.8774387,250.44],[4.8104978,45.8774129,253.358],[4.8109484,45.8773121,255.208],[4.8111308,45.8771963,255.339],[4.8113414,45.8769532,256.791],[4.8118926,45.8763074,259.61],[4.8120391,45.8761437,259.416],[4.8113937,45.8757696,264.941],[4.8113146,45.8757058,265.42],[4.8123016,45.8755153,260.598],[4.8122533,45.8751978,265.408],[4.8116579,45.8753584,269.407],[4.8107137,45.875675,268.481],[4.8101773,45.8757926,265.72],[4.8098876,45.8758738,261.495],[4.8096087,45.8760344,255.576],[4.8092224,45.8762174,256.231],[4.8086954,45.8763186,259.246],[4.8084661,45.876434,261.165],[4.8084446,45.8765797,260.313],[4.8089529,45.8773942,247.328],[4.8089636,45.8775025,246.941],[4.8088349,45.8776108,247.086],[4.8088456,45.8776445,245.982],[4.8089046,45.8776631,245.826],[4.8089649,45.877659,246.027]]]}},{"type":"Feature","properties":{"kind":"farmland","source":"osm","osmType":"way","osmId":161450625,"name":"","landuse":"farmland"},"geometry":{"type":"Polygon","coordinates":[[[4.8208274,45.8744485,208.031],[4.8214983,45.8744576,213.193],[4.8217784,45.8743552,214.694],[4.821432,45.874069,216.166],[4.8218303,45.8739067,217.371],[4.8215012,45.8735947,219.25],[4.8214745,45.8735731,219.354],[4.8212709,45.8733813,221.423],[4.821095,45.8732062,223.823],[4.8210172,45.8732472,223.45],[4.8207758,45.8733668,220.816],[4.8208762,45.8734747,219.478],[4.8208438,45.8734918,219.184],[4.8211032,45.8737482,217.46],[4.8209573,45.8738262,215.372],[4.8207502,45.8739216,214.537],[4.8210597,45.8742064,210.95],[4.8207395,45.8743547,208.956],[4.8208274,45.8744485,208.031]]]}},{"type":"Feature","properties":{"kind":"farmland","source":"osm","osmType":"way","osmId":161668048,"name":"","landuse":"farmland"},"geometry":{"type":"Polygon","coordinates":[[[4.8100697,45.8775451,250.397],[4.8104801,45.8775403,252.211],[4.8106269,45.8775241,252.792],[4.8106712,45.8775714,251.559],[4.811321,45.8785805,251.701],[4.811384,45.8786869,251.383],[4.8117354,45.878614,251.303],[4.8118883,45.8785281,251.085],[4.8114652,45.877923,253.292],[4.8114229,45.8778382,253.338],[4.812242,45.8776555,252.926],[4.812275,45.8776481,253.094],[4.8123684,45.8777975,252.965],[4.8125705,45.8780584,250.943],[4.8126735,45.8780939,250.293],[4.8132774,45.8780065,246.343],[4.8134651,45.8781409,242.68],[4.81361,45.8782679,239.937],[4.813889,45.8784789,233.235],[4.8144254,45.8789103,215.797],[4.8146147,45.8790244,207.188],[4.8147891,45.8790333,202.442],[4.8148146,45.8792238,199.969],[4.8144793,45.8793605,209.441],[4.8143224,45.8792176,218.368],[4.8140512,45.8789728,230.007],[4.8138782,45.878843,233.96],[4.8136851,45.8788206,236.635],[4.8134748,45.8788367,238.002],[4.8132602,45.8789114,238.33],[4.8130521,45.8790746,238.558],[4.8129663,45.8793061,233.625],[4.812859,45.8794928,233.612],[4.8124341,45.8797554,234.675],[4.8125199,45.8800317,227.726],[4.8126701,45.8805322,218.773],[4.8126122,45.8805833,218.279],[4.8127131,45.8807114,215.629],[4.8126659,45.8807775,214.714],[4.8125307,45.8807936,214.938],[4.8124406,45.8806729,217.507],[4.8122689,45.8803966,223.15],[4.8121938,45.8802397,226.207],[4.8121294,45.8800082,231.274],[4.8120908,45.8798674,235.441],[4.811829,45.8796123,244.073],[4.8115286,45.8792165,249.493],[4.8113462,45.8790522,250.341],[4.8111424,45.8786862,251.396],[4.8108956,45.8785741,251.445],[4.810681,45.8784397,251.139],[4.8103162,45.8779318,251.152],[4.8100695,45.8777376,249.382],[4.8099679,45.8776884,247.317],[4.8099884,45.8775519,247.794],[4.8100697,45.8775451,250.397]]]}},{"type":"Feature","properties":{"kind":"farmland","source":"osm","osmType":"way","osmId":161735514,"name":"","landuse":"farmland"},"geometry":{"type":"Polygon","coordinates":[[[4.8122237,45.8751193,267.491],[4.81239,45.8750035,270.318],[4.8127038,45.874912,271.77],[4.8129318,45.8748803,269.63],[4.8129801,45.8748803,269.344],[4.8130149,45.8749102,268.609],[4.8131651,45.8748784,268.524],[4.8133663,45.8747963,268.211],[4.8137552,45.8745621,267.643],[4.8130766,45.8739503,286.662],[4.8126957,45.8735992,295.636],[4.8130483,45.873247,298.39],[4.8134334,45.8735451,286.565],[4.8136801,45.8733789,287.064],[4.8139215,45.87356,281.148],[4.8139674,45.8735376,281.426],[4.8141619,45.8734426,281.721],[4.8146323,45.8732127,275.174],[4.8145235,45.8731275,277.786],[4.8143787,45.873092,281.569],[4.8142273,45.8730334,285.742],[4.8141293,45.8729613,289.023],[4.8139054,45.8728765,294.585],[4.8137203,45.8727758,298.84],[4.8134843,45.8726488,304.7],[4.813436,45.8726413,305.498],[4.8132483,45.8726899,306.39],[4.8131025,45.8727447,306.338],[4.8130432,45.872779,306.181],[4.8128187,45.8727133,308.364],[4.8125113,45.8728012,307.49],[4.8120831,45.8731441,304.337],[4.8119656,45.8732383,303.569],[4.8124611,45.8737792,293.861],[4.8122718,45.8739118,292.463],[4.8118375,45.8740304,290.557],[4.8122026,45.874467,280.216],[4.8117217,45.8746033,279.29],[4.8121812,45.8751505,267.098],[4.8122237,45.8751193,267.491]]]}},{"type":"Feature","properties":{"kind":"farmland","source":"osm","osmType":"way","osmId":161735515,"name":"","landuse":"farmland"},"geometry":{"type":"Polygon","coordinates":[[[4.8112419,45.8736401,300.593],[4.8115114,45.8735084,301.229],[4.8109052,45.8724645,319.569],[4.8110475,45.8723602,319.673],[4.8116027,45.8722752,315.465],[4.8115624,45.8722246,316.217],[4.81046,45.8724309,322.317],[4.8106263,45.8728194,316.003],[4.8107551,45.873025,311.987],[4.8108516,45.8731705,309.821],[4.8110582,45.8734254,304.963],[4.8112419,45.8736401,300.593]]]}},{"type":"Feature","properties":{"kind":"orchard","source":"osm","osmType":"way","osmId":161735902,"name":"","landuse":"orchard"},"geometry":{"type":"Polygon","coordinates":[[[4.8221788,45.8676804,247.863],[4.8227273,45.8674409,262.925],[4.8229847,45.867751,259.985],[4.8229129,45.8677849,258.587],[4.8227108,45.8675972,260.916],[4.8222719,45.8677884,249.499],[4.8221599,45.8678359,244.616],[4.82207,45.8677276,242.24],[4.8221788,45.8676804,247.863]]]}},{"type":"Feature","properties":{"kind":"farmland","source":"osm","osmType":"way","osmId":163809610,"name":"","landuse":"farmland"},"geometry":{"type":"Polygon","coordinates":[[[4.8190766,45.8807102,170.646],[4.8187279,45.8799223,168.842],[4.8178012,45.880087,172.514],[4.8173222,45.8801721,174.411],[4.8180225,45.8810773,170.516],[4.8182192,45.8810088,170.496],[4.8190766,45.8807102,170.646]]]}},{"type":"Feature","properties":{"kind":"farmland","source":"osm","osmType":"way","osmId":163902685,"name":"","landuse":"farmland"},"geometry":{"type":"Polygon","coordinates":[[[4.8184463,45.8786263,204.931],[4.8182424,45.8784228,209.026],[4.8180063,45.8785908,208.056],[4.8182853,45.8788672,195.656],[4.8186367,45.8787869,194.761],[4.8184463,45.8786263,204.931]]]}},{"type":"Feature","properties":{"kind":"farmland","source":"osm","osmType":"way","osmId":163921085,"name":"","landuse":"farmland"},"geometry":{"type":"Polygon","coordinates":[[[4.819489,45.8505199,405.16],[4.8193623,45.8505303,406.028],[4.8193027,45.8506124,410.191],[4.8194072,45.8506554,412.194],[4.8193321,45.8507694,417.228],[4.8193483,45.8508394,420.636],[4.8192141,45.8508104,419.44],[4.8191316,45.8508778,423.469],[4.8190934,45.8508913,423.173],[4.819096,45.8508935,423.273],[4.8191404,45.8508876,423.79],[4.8194119,45.8510552,429.004],[4.8196835,45.8511738,430.625],[4.8198229,45.8511551,429.185],[4.8200362,45.851015,424.665],[4.8201971,45.8508366,418.591],[4.8198337,45.8506694,412.259],[4.8195863,45.8505872,408.323],[4.8196393,45.8505367,405.758],[4.8202468,45.8506488,411.917],[4.8206256,45.8507806,417.051],[4.8206826,45.8505386,408.964],[4.8207946,45.8503901,403.424],[4.8209435,45.8502865,399.956],[4.8210112,45.8500314,388.208],[4.8204895,45.849967,378.644],[4.8203923,45.8498904,370.173],[4.8203554,45.8498642,369.551],[4.8202991,45.8499333,374.306],[4.8200643,45.8499184,371.796],[4.8200067,45.8499389,372.522],[4.8200342,45.850009,376.347],[4.8200228,45.8500977,381.378],[4.8199303,45.8500931,381.015],[4.8198578,45.8502518,390.57],[4.8198237,45.8503584,396.012],[4.8197129,45.8504358,400.389],[4.819489,45.8505199,405.16]]]}},{"type":"Feature","properties":{"kind":"farmland","source":"osm","osmType":"way","osmId":163921087,"name":"","landuse":"farmland"},"geometry":{"type":"Polygon","coordinates":[[[4.8177515,45.8513832,437.493],[4.8174372,45.8517489,446.233],[4.8167122,45.8514969,443.991],[4.8167415,45.8512499,442.163],[4.8167935,45.8512237,439.593],[4.8169734,45.8511333,433.955],[4.8169916,45.8511143,433.278],[4.8171043,45.8509963,429.324],[4.8172162,45.8508792,426.325],[4.8172856,45.8508065,424.28],[4.8172923,45.8507995,424.228],[4.817384,45.8508119,421.734],[4.8173816,45.8511105,426.903],[4.8175085,45.8512205,431.097],[4.8177383,45.8513394,436.055],[4.8177515,45.8513832,437.493]]]}},{"type":"Feature","properties":{"kind":"farmland","source":"osm","osmType":"way","osmId":163921088,"name":"","landuse":"farmland"},"geometry":{"type":"Polygon","coordinates":[[[4.8180838,45.8511352,431.053],[4.8184262,45.8510132,426.646],[4.8185324,45.8509123,421.834],[4.8187295,45.850832,418.372],[4.8189647,45.8507588,416.024],[4.8189895,45.8507815,417.114],[4.8190934,45.8508913,423.173],[4.819096,45.8508935,423.273],[4.8194368,45.8512424,433.91],[4.8195634,45.8514128,436.475],[4.8191142,45.8516615,444.522],[4.8183403,45.8519176,453.238],[4.8178449,45.8517938,449.918],[4.8182176,45.8513595,438.862],[4.8180838,45.8511352,431.053]]]}},{"type":"Feature","properties":{"kind":"farmland","source":"osm","osmType":"way","osmId":173619465,"name":"","landuse":"farmland"},"geometry":{"type":"Polygon","coordinates":[[[4.8405585,45.8844184,241.728],[4.8403044,45.8847512,242.267],[4.8405878,45.8849465,242.79],[4.8407959,45.8850978,242.959],[4.8410213,45.8852167,242.975],[4.8409975,45.8853331,242.895],[4.8408507,45.8853613,242.817],[4.8409745,45.8854753,242.906],[4.8411453,45.8856144,242.847],[4.8413143,45.8857019,242.801],[4.8420097,45.8858339,242.719],[4.8415269,45.8862517,243.053],[4.841441,45.8867073,243.121],[4.8414732,45.887006,242.826],[4.8418713,45.8875224,242.665],[4.8422146,45.8877166,242.63],[4.8423203,45.8879171,242.811],[4.8422452,45.8884772,243.139],[4.843479,45.8888132,243.026],[4.8444033,45.8890085,242.636],[4.845047,45.8891952,242.486],[4.8461612,45.8896795,242.417],[4.8462899,45.8897019,242.485],[4.8464096,45.8896508,242.359],[4.8471268,45.8869313,242.942],[4.8473735,45.8866177,243.142],[4.8473628,45.8865355,243.147],[4.8454976,45.8839451,241.278],[4.8453994,45.8838323,241.681],[4.845226,45.883979,241.367],[4.8448213,45.8847914,242.883],[4.8441971,45.8857871,242.747],[4.8432309,45.8854251,242.883],[4.8439402,45.8843329,241.675],[4.8430979,45.8839867,241.408],[4.8423448,45.885091,243.049],[4.8405585,45.8844184,241.728]]]}},{"type":"Feature","properties":{"kind":"farmland","source":"osm","osmType":"way","osmId":173942430,"name":"","landuse":"farmland"},"geometry":{"type":"Polygon","coordinates":[[[4.8413818,45.8935329,242.516],[4.8413013,45.8933536,242.516],[4.841238,45.892917,242.516],[4.8412004,45.8927788,242.516],[4.8411726,45.8927077,242.516],[4.8411296,45.8923269,242.516],[4.8411618,45.892241,242.516],[4.8411565,45.8921103,242.516],[4.84112,45.8920657,242.516],[4.841061,45.8920358,242.516],[4.841025,45.8919935,242.516],[4.8409848,45.8919461,242.516],[4.8408239,45.891666,242.361],[4.8406039,45.8912329,241.987],[4.840502,45.8909753,241.776],[4.8404108,45.8907886,241.564],[4.8403421,45.890688,241.412],[4.8402177,45.8905384,241.069],[4.8401598,45.8904341,240.923],[4.8401329,45.8903407,240.84],[4.8401426,45.890236,240.864],[4.8402284,45.8901165,241.097],[4.8403518,45.8899261,241.44],[4.8403464,45.8898327,241.424],[4.8403089,45.8896684,241.19],[4.8402982,45.8895228,240.851],[4.8403035,45.8894071,240.752],[4.8403518,45.8892278,241.002],[4.8403893,45.8890449,241.333],[4.8403625,45.8888731,241.732],[4.8403572,45.8887798,242.033],[4.8405342,45.888201,242.582],[4.8406522,45.8877903,242.156],[4.8406855,45.8877701,242.176],[4.8411723,45.8879648,242.861],[4.8415491,45.8882348,243.086],[4.84193,45.888485,243.129],[4.8417047,45.8888098,243.031],[4.8420319,45.8889368,242.79],[4.8421607,45.8887762,243.047],[4.8421285,45.8887016,243.098],[4.8421757,45.8886304,243.139],[4.8425512,45.8886827,243.095],[4.8445092,45.8891718,242.418],[4.8449813,45.8892727,242.555],[4.8459844,45.8897058,242.495],[4.8460874,45.8897508,242.516],[4.8458825,45.8901277,242.516],[4.8456626,45.8905944,242.516],[4.8454437,45.89136,242.516],[4.8452066,45.8922074,242.516],[4.8451433,45.892342,242.516],[4.8450403,45.8924874,242.516],[4.8449394,45.8925922,242.516],[4.8447721,45.8927339,242.516],[4.8445682,45.8929467,242.516],[4.8443483,45.8931707,242.516],[4.8439996,45.8934358,242.516],[4.8437582,45.8936449,242.516],[4.8413976,45.8935592,242.516],[4.8413818,45.8935329,242.516]]]}},{"type":"Feature","properties":{"kind":"farmland","source":"osm","osmType":"way","osmId":178318807,"name":"","landuse":"farmland"},"geometry":{"type":"Polygon","coordinates":[[[4.8403492,45.8641509,172.904],[4.8403921,45.8639137,172.284],[4.8423126,45.8638502,173.345],[4.8424138,45.8638552,173.329],[4.8425587,45.8640569,173.461],[4.8413792,45.8641565,173.709],[4.841347,45.86408,173.693],[4.8403492,45.8641509,172.904]]]}},{"type":"Feature","properties":{"kind":"vineyard","source":"osm","osmType":"way","osmId":180155030,"name":"","landuse":"vineyard"},"geometry":{"type":"Polygon","coordinates":[[[4.8021135,45.8669439,421.139],[4.8022494,45.8669525,421.71],[4.8027159,45.8669516,423.73],[4.8034097,45.8671039,412.734],[4.8033856,45.866876,418.535],[4.803289,45.8668686,419.148],[4.8034285,45.8663904,432.693],[4.8022054,45.866368,432.253],[4.8020649,45.866885,421.702],[4.8021135,45.8669439,421.139]]]}},{"type":"Feature","properties":{"kind":"vineyard","source":"osm","osmType":"way","osmId":180155031,"name":"","landuse":"vineyard"},"geometry":{"type":"Polygon","coordinates":[[[4.8033346,45.864576,488.596],[4.8021012,45.8647187,498.97],[4.8022866,45.8651407,487.252],[4.8022092,45.8651547,482.105],[4.802194,45.8652383,475.128],[4.8022698,45.8660542,437.285],[4.803503,45.866182,440.265],[4.8030417,45.8651062,492.596],[4.803525,45.8650158,484.04],[4.8033346,45.864576,488.596]]]}},{"type":"Feature","properties":{"kind":"orchard","source":"osm","osmType":"way","osmId":213211665,"name":"","landuse":"orchard"},"geometry":{"type":"Polygon","coordinates":[[[4.8266941,45.8704363,229.422],[4.8269974,45.8697655,228.789],[4.8268961,45.8697433,229.07],[4.8265927,45.8704141,229.727],[4.8266941,45.8704363,229.422]]]}},{"type":"Feature","properties":{"kind":"farmland","source":"osm","osmType":"way","osmId":219901681,"name":"","landuse":"farmland"},"geometry":{"type":"Polygon","coordinates":[[[4.8406797,45.8514636,218.601],[4.8405245,45.8511552,215.158],[4.8393707,45.8514813,192.548],[4.839263,45.8518217,186.7],[4.8390288,45.8518301,183.645],[4.838682,45.8513522,184.749],[4.8385278,45.8514215,181.921],[4.8384245,45.851537,179.312],[4.8384782,45.8517163,178.099],[4.83856,45.8517974,178.566],[4.8385425,45.8519032,176.02],[4.8386498,45.8522058,174.516],[4.8387886,45.8525912,172.483],[4.8394867,45.8525159,182.048],[4.8398461,45.8524225,188.329],[4.8400339,45.8521087,195.089],[4.8397536,45.8516935,194.669],[4.8406797,45.8514636,218.601]]]}},{"type":"Feature","properties":{"kind":"farmland","source":"osm","osmType":"way","osmId":222907886,"name":"","landuse":"farmland"},"geometry":{"type":"Polygon","coordinates":[[[4.843501,45.8501089,237.711],[4.8452362,45.8506134,227.852],[4.8454417,45.8505274,230.471],[4.8453837,45.8504267,231.997],[4.8453435,45.8503705,232.538],[4.8452603,45.8503557,232.543],[4.8451799,45.8502885,236.311],[4.8451396,45.8502285,236.789],[4.8451262,45.8501876,237.83],[4.8451075,45.850094,237.661],[4.8448312,45.8498737,236.85],[4.8446756,45.8496981,237.208],[4.8444825,45.8496458,237.235],[4.8443779,45.8496195,237.287],[4.8442438,45.8494625,237.563],[4.8442035,45.8493656,238.012],[4.8443752,45.849317,238.287],[4.8439892,45.8487191,237.338],[4.8439463,45.8485771,236.63],[4.8438712,45.8484501,235.939],[4.8437746,45.8480839,233.467],[4.8434474,45.8473926,222.337],[4.8433293,45.8471049,209.43],[4.8433079,45.8468844,200.116],[4.8431252,45.846712,192.005],[4.8428519,45.8465294,187.534],[4.8423691,45.8461894,187.534],[4.8421384,45.8461109,187.534],[4.8420365,45.8459614,187.534],[4.8418327,45.845939,187.534],[4.8417308,45.8456699,187.534],[4.8417576,45.8453822,187.534],[4.8418327,45.8452626,187.534],[4.8415215,45.8451804,187.534],[4.8413657,45.8451948,187.534],[4.8411836,45.8450534,187.534],[4.8411085,45.8450011,187.534],[4.8410495,45.8450459,187.534],[4.8408349,45.8450235,188.581],[4.8407276,45.8449898,190.401],[4.8405935,45.8450758,195.254],[4.8404755,45.8450608,199.05],[4.8404249,45.8450362,201.222],[4.840488,45.8452769,198.548],[4.8406482,45.846479,193.438],[4.8408347,45.8464837,188.583],[4.8411717,45.8470025,204.934],[4.8412955,45.8472632,217.157],[4.8405416,45.8474875,226.808],[4.8406254,45.8475639,227.387],[4.8409905,45.8478373,229.83],[4.8411136,45.8480123,232.913],[4.8412638,45.8481842,234.238],[4.841484,45.8483454,235.305],[4.8416983,45.8484831,236.136],[4.8420094,45.8487709,237.54],[4.8423957,45.8490436,238.513],[4.8426105,45.8491824,238.854],[4.8428785,45.8489988,238.426],[4.8431255,45.8488835,237.935],[4.8439248,45.8498885,236.856],[4.843501,45.8501089,237.711]]]}},{"type":"Feature","properties":{"kind":"vineyard","source":"osm","osmType":"way","osmId":228478924,"name":"","landuse":"vineyard"},"geometry":{"type":"Polygon","coordinates":[[[4.8062933,45.8573257,373.374],[4.806245,45.8572677,372.565],[4.806302,45.8572351,372.297],[4.8063054,45.8572136,371.587],[4.8062135,45.8570277,364.74],[4.8060451,45.8568788,360.658],[4.8057877,45.8567285,358.568],[4.8050299,45.8571958,383.513],[4.8047255,45.8573635,394.218],[4.8052491,45.8576138,383.29],[4.8053446,45.857566,380.329],[4.8053917,45.8574577,378.05],[4.8054721,45.857395,374.946],[4.8057025,45.8574107,373.336],[4.805958,45.8573684,370.884],[4.8061437,45.8573593,372.284],[4.8062981,45.8573505,373.53],[4.8062933,45.8573257,373.374]]]}},{"type":"Feature","properties":{"kind":"farmland","source":"osm","osmType":"way","osmId":228478928,"name":"","landuse":"farmland"},"geometry":{"type":"Polygon","coordinates":[[[4.8162675,45.8682627,338.378],[4.8161145,45.8682688,342.298],[4.8159441,45.8682682,346.16],[4.8157861,45.8682644,349.827],[4.8160467,45.8678796,321.915],[4.8164493,45.8680029,312.672],[4.8164119,45.8680516,323.447],[4.8162675,45.8682627,338.378]]]}},{"type":"Feature","properties":{"kind":"orchard","source":"osm","osmType":"way","osmId":228478930,"name":"","landuse":"orchard"},"geometry":{"type":"Polygon","coordinates":[[[4.8062701,45.8667828,454.98],[4.8062155,45.8661121,444.585],[4.8058806,45.8661213,446.951],[4.8059044,45.8665155,448.923],[4.8058828,45.8667979,440.649],[4.8062701,45.8667828,454.98]]]}},{"type":"Feature","properties":{"kind":"farmland","source":"osm","osmType":"way","osmId":228478942,"name":"","landuse":"farmland"},"geometry":{"type":"Polygon","coordinates":[[[4.8146376,45.8669152,301.781],[4.8148334,45.8668536,299.953],[4.8149032,45.8667957,296.053],[4.8150105,45.8667023,291.953],[4.81563,45.8671972,291.548],[4.815896,45.8673539,292.732],[4.8157802,45.8675185,307.686],[4.8158688,45.8675988,310.038],[4.8158473,45.8676455,314.043],[4.8156515,45.8676306,319.824],[4.815035,45.8672363,311.771],[4.814871,45.8671412,309.316],[4.8148281,45.8671655,312.455],[4.8147453,45.867113,310.642],[4.8147503,45.867046,304.074],[4.8146376,45.8669152,301.781]]]}},{"type":"Feature","properties":{"kind":"vineyard","source":"osm","osmType":"way","osmId":228479665,"name":"","landuse":"vineyard"},"geometry":{"type":"Polygon","coordinates":[[[4.8058266,45.8635738,435.58],[4.8057756,45.8634916,435.268],[4.8056442,45.8633235,435.401],[4.8055427,45.8632524,435.996],[4.8052097,45.8634804,440.656],[4.8048771,45.8632787,443.032],[4.8045177,45.8635589,450.813],[4.8047403,45.8636485,448.981],[4.8046169,45.8637307,450.625],[4.8043132,45.8639684,457.289],[4.8044465,45.864109,455.99],[4.8049776,45.8637672,445.873],[4.8050277,45.8637249,443.899],[4.8054944,45.8638669,440.34],[4.8056469,45.8637345,438.069],[4.8058266,45.8635738,435.58]]]}},{"type":"Feature","properties":{"kind":"farmland","source":"osm","osmType":"way","osmId":228481532,"name":"","landuse":"farmland"},"geometry":{"type":"Polygon","coordinates":[[[4.8065879,45.8617548,421.444],[4.8063728,45.8617656,425.04],[4.8053733,45.8618685,437.828],[4.8052601,45.8614631,441.526],[4.8052074,45.8612743,443.24],[4.8051967,45.8611006,444.006],[4.8051135,45.8609362,444.392],[4.8050169,45.8607457,445.552],[4.8050031,45.8606749,445.933],[4.804797,45.8603927,448.005],[4.8047568,45.8603198,449.38],[4.8047778,45.8601743,446.421],[4.8047886,45.8600155,444.962],[4.8046625,45.8597578,443.137],[4.8049491,45.8596925,439.703],[4.8054837,45.8595708,433.392],[4.8053572,45.8593655,432.58],[4.8055798,45.8593057,430.894],[4.8063308,45.8591376,422.075],[4.8064435,45.8592105,420.689],[4.8064918,45.8594533,420.018],[4.8065592,45.8596885,419.346],[4.806983,45.8602544,416.031],[4.8065213,45.8603181,421.536],[4.8055959,45.8604358,436.755],[4.8056281,45.8606058,436.073],[4.8070899,45.8603985,415.281],[4.8072432,45.8604039,414.075],[4.8078971,45.8599912,403.125],[4.8080636,45.8603515,403.201],[4.8081516,45.860721,403.627],[4.8082108,45.8609536,402.847],[4.8079859,45.8610476,404.368],[4.8076044,45.8612375,409.098],[4.8076918,45.8612411,406.863],[4.8080017,45.8611353,403.649],[4.8080845,45.8615132,398.954],[4.8081796,45.8615971,396.927],[4.8080374,45.8618373,396.656],[4.8079876,45.8620357,396.953],[4.8075783,45.8619742,405.378],[4.8075881,45.8615569,406.639],[4.807576,45.8613058,409.3],[4.8074419,45.8613555,410.801],[4.8074158,45.8614584,410.598],[4.8074741,45.8617402,408.343],[4.8074121,45.8619231,408.461],[4.8073651,45.8619825,408.559],[4.807004,45.8618862,416.749],[4.8065879,45.8617548,421.444]]]}},{"type":"Feature","properties":{"kind":"vineyard","source":"osm","osmType":"way","osmId":228481533,"name":"","landuse":"vineyard"},"geometry":{"type":"Polygon","coordinates":[[[4.8065944,45.8594411,418.276],[4.8066477,45.859681,417.488],[4.8069374,45.860077,416.007],[4.8072432,45.8604039,414.075],[4.8078971,45.8599912,403.125],[4.8080442,45.8599314,399.795],[4.8076478,45.8597094,404.793],[4.8074499,45.8597084,406.668],[4.8071863,45.8595681,409.783],[4.80669,45.859339,416.45],[4.8065642,45.8593463,418.353],[4.8065944,45.8594411,418.276]]]}},{"type":"Feature","properties":{"kind":"farmland","source":"osm","osmType":"way","osmId":228481536,"name":"","landuse":"farmland"},"geometry":{"type":"Polygon","coordinates":[[[4.8052123,45.8630359,437.914],[4.8048771,45.8632787,443.032],[4.8052097,45.8634804,440.656],[4.8055427,45.8632524,435.996],[4.8052123,45.8630359,437.914]]]}},{"type":"Feature","properties":{"kind":"farmland","source":"osm","osmType":"way","osmId":228481537,"name":"","landuse":"farmland"},"geometry":{"type":"Polygon","coordinates":[[[4.8063728,45.8617656,425.04],[4.8065879,45.8617548,421.444],[4.8065391,45.8617822,421.251],[4.807004,45.8619357,416.31],[4.8073937,45.8620503,407.285],[4.8073655,45.8621793,406.365],[4.8074229,45.8622568,404.178],[4.8077256,45.862297,398.421],[4.807711,45.8624273,397.217],[4.8081209,45.862711,395.748],[4.8079348,45.86295,404.698],[4.8077984,45.8631627,410.831],[4.8076719,45.8633179,418.458],[4.8075995,45.8634337,421.8],[4.8073501,45.8636261,425.61],[4.8072137,45.8636894,427.44],[4.8070872,45.8636803,428.38],[4.8070071,45.8636502,429.749],[4.8067975,45.8634674,429.276],[4.8061676,45.8637417,435.034],[4.8059902,45.863656,435.079],[4.8059446,45.8636074,434.965],[4.8060277,45.8635495,433.978],[4.8058883,45.8634057,433.799],[4.8057921,45.8634018,434.517],[4.8056549,45.8632395,434.94],[4.805612,45.8631965,435.052],[4.8056764,45.863176,434.433],[4.8056039,45.8630901,434.51],[4.8053371,45.8630107,436.361],[4.8056079,45.8626128,430.486],[4.8059691,45.8622605,424.162],[4.8060217,45.8621594,425.079],[4.8063728,45.8617656,425.04]]]}},{"type":"Feature","properties":{"kind":"farmland","source":"osm","osmType":"way","osmId":228653383,"name":"","landuse":"farmland"},"geometry":{"type":"Polygon","coordinates":[[[4.8144026,45.8662374,296.448],[4.8148114,45.8665767,294.071],[4.8146456,45.86665,298.354],[4.8144739,45.8667229,306.749],[4.8144573,45.8666795,305.191],[4.8143527,45.8665823,303.761],[4.8141864,45.8664815,303.363],[4.8140555,45.866439,304.493],[4.8144026,45.8662374,296.448]]]}},{"type":"Feature","properties":{"kind":"farmland","source":"osm","osmType":"way","osmId":228654898,"name":"","landuse":"farmland"},"geometry":{"type":"Polygon","coordinates":[[[4.8138811,45.8669171,317.409],[4.8140635,45.8668778,312.775],[4.8142165,45.866807,313.228],[4.814305,45.8667734,313.787],[4.8143935,45.866777,309.481],[4.8143023,45.8667154,310.969],[4.8142674,45.8666426,305.862],[4.8142111,45.8665996,306.037],[4.8141145,45.8665492,307.693],[4.8140233,45.8665249,308.86],[4.8139268,45.8664894,309.814],[4.8138919,45.8664577,309.898],[4.8138007,45.8664409,311.186],[4.8136183,45.8664483,314.3],[4.8133581,45.8665903,321.265],[4.81357,45.866736,319.503],[4.8138811,45.8669171,317.409]]]}},{"type":"Feature","properties":{"kind":"vineyard","source":"osm","osmType":"way","osmId":228662317,"name":"","landuse":"vineyard"},"geometry":{"type":"Polygon","coordinates":[[[4.8054813,45.8652023,449.523],[4.8061832,45.864773,444.336],[4.8064864,45.8649789,440.74],[4.8065696,45.8650162,439.5],[4.8063603,45.8650942,442.135],[4.8060893,45.8651951,444.058],[4.8059473,45.8652516,446.1],[4.8058775,45.8652567,447.304],[4.8056736,45.8652119,448.743],[4.8055717,45.8652044,449.191],[4.8054813,45.8652023,449.523]]]}},{"type":"Feature","properties":{"kind":"vineyard","source":"osm","osmType":"way","osmId":228662321,"name":"","landuse":"vineyard"},"geometry":{"type":"Polygon","coordinates":[[[4.802093,45.8644144,505.012],[4.8020625,45.8642868,506.91],[4.8020259,45.8641417,508.491],[4.802549,45.8640472,501.584],[4.8027099,45.8643247,498.507],[4.802093,45.8644144,505.012]]]}},{"type":"Feature","properties":{"kind":"orchard","source":"osm","osmType":"way","osmId":228662323,"name":"","landuse":"orchard"},"geometry":{"type":"Polygon","coordinates":[[[4.800495,45.8636691,484.676],[4.8000679,45.8635514,482.876],[4.8002865,45.8630802,497.3],[4.800428,45.8631069,504.184],[4.8005842,45.8631208,511.537],[4.8007781,45.8631228,520.171],[4.800495,45.8636691,484.676]]]}},{"type":"Feature","properties":{"kind":"vineyard","source":"osm","osmType":"way","osmId":228923181,"name":"","landuse":"vineyard"},"geometry":{"type":"Polygon","coordinates":[[[4.8061514,45.8637604,435.28],[4.8061676,45.8637417,435.034],[4.8067975,45.8634674,429.276],[4.8070071,45.8636502,429.749],[4.8070872,45.8636803,428.38],[4.8072137,45.8636894,427.44],[4.8072298,45.863921,428.972],[4.8072481,45.8639922,429.011],[4.8069048,45.8640053,432.383],[4.8067237,45.8639987,434.221],[4.8065431,45.8639677,435.537],[4.8062852,45.8638633,435.874],[4.8061377,45.8637774,435.5],[4.8061514,45.8637604,435.28]]]}},{"type":"Feature","properties":{"kind":"vineyard","source":"osm","osmType":"way","osmId":228923182,"name":"","landuse":"vineyard"},"geometry":{"type":"Polygon","coordinates":[[[4.8061419,45.8647435,444.621],[4.8061832,45.864773,444.336],[4.8064864,45.8649789,440.74],[4.8065696,45.8650162,439.5],[4.8073836,45.864875,432.996],[4.807566,45.8647069,431.446],[4.8075851,45.8645626,430.715],[4.8076723,45.864373,427.886],[4.8077689,45.8642255,423.402],[4.8076934,45.864108,423.53],[4.8075378,45.8640912,426.893],[4.807283,45.8641398,429.139],[4.8068565,45.8642294,433.834],[4.8065347,45.8641566,437.356],[4.8064332,45.864106,437.484],[4.8063581,45.8641405,438.328],[4.8058507,45.864475,444.439],[4.8061419,45.8647435,444.621]]]}},{"type":"Feature","properties":{"kind":"farmland","source":"osm","osmType":"way","osmId":228957286,"name":"","landuse":"farmland"},"geometry":{"type":"Polygon","coordinates":[[[4.8050136,45.8647146,451.348],[4.8050199,45.8646772,451.154],[4.8049535,45.8645082,451.254],[4.8050165,45.8644592,451.168],[4.8048651,45.8642964,450.868],[4.8049633,45.864218,449.558],[4.8052101,45.8640835,444.457],[4.805509,45.8639489,440.839],[4.8055816,45.8639789,440.543],[4.8056231,45.8640359,440.731],[4.8056701,45.864148,441.485],[4.8052444,45.8643545,446.618],[4.8056225,45.8646215,446.641],[4.8052786,45.8649312,449.747],[4.8049928,45.8647432,451.661],[4.8050136,45.8647146,451.348]]]}},{"type":"Feature","properties":{"kind":"farmland","source":"osm","osmType":"way","osmId":229173395,"name":"","landuse":"farmland"},"geometry":{"type":"Polygon","coordinates":[[[4.8036096,45.8592899,439.921],[4.8032282,45.8594349,447.148],[4.8028975,45.8595551,455.153],[4.803075,45.8598304,461.439],[4.8031045,45.8598622,461.053],[4.803244,45.8601162,465.612],[4.8033862,45.8601779,463.654],[4.80354,45.8603084,463.344],[4.8036879,45.8602483,460.56],[4.8037643,45.8602189,459.439],[4.8037411,45.8601829,459.045],[4.8035296,45.8598934,455.994],[4.8039523,45.8597447,449.468],[4.8038984,45.8596756,447.993],[4.8036096,45.8592899,439.921]]]}},{"type":"Feature","properties":{"kind":"farmland","source":"osm","osmType":"way","osmId":229173397,"name":"","landuse":"farmland"},"geometry":{"type":"Polygon","coordinates":[[[4.8029221,45.8581396,435.565],[4.8032791,45.8579604,424.199],[4.8036405,45.8578008,415.836],[4.8038582,45.8580654,415.56],[4.803143,45.8583946,430.887],[4.8030884,45.8583965,432.566],[4.8029221,45.8581396,435.565]]]}},{"type":"Feature","properties":{"kind":"farmland","source":"osm","osmType":"way","osmId":229508739,"name":"","landuse":"farmland"},"geometry":{"type":"Polygon","coordinates":[[[4.808565,45.8571959,379.566],[4.8086064,45.857244,379.956],[4.8086629,45.8572706,379.384],[4.8087326,45.8574051,379.524],[4.8085865,45.857447,381.718],[4.808388,45.8574891,384.587],[4.8082001,45.8575148,387.487],[4.8081467,45.8574284,387.394],[4.808091,45.857328,387.248],[4.808565,45.8571959,379.566]]]}},{"type":"Feature","properties":{"kind":"farmland","source":"osm","osmType":"way","osmId":229563298,"name":"","landuse":"farmland"},"geometry":{"type":"Polygon","coordinates":[[[4.802117,45.8497278,410.264],[4.8023289,45.8498642,403.168],[4.8020206,45.8501103,415.109],[4.8017981,45.8499978,418.207],[4.802117,45.8497278,410.264]]]}},{"type":"Feature","properties":{"kind":"farmland","source":"osm","osmType":"way","osmId":229563300,"name":"","landuse":"farmland"},"geometry":{"type":"Polygon","coordinates":[[[4.8023536,45.850481,406.913],[4.8023502,45.8506905,408.174],[4.802392,45.8509064,406.077],[4.8024939,45.851142,400.328],[4.8021518,45.8513769,409.119],[4.8016994,45.8510277,428.689],[4.8011003,45.8506752,452.156],[4.8012196,45.8505496,444.653],[4.8014992,45.8502482,429.101],[4.8016122,45.8501406,422.101],[4.8016618,45.8501616,420.574],[4.8022991,45.8504421,409.55],[4.8023536,45.850481,406.913]]]}},{"type":"Feature","properties":{"kind":"farmland","source":"osm","osmType":"way","osmId":229668605,"name":"","landuse":"farmland"},"geometry":{"type":"Polygon","coordinates":[[[4.8015612,45.8573653,469.444],[4.8014835,45.857454,473.544],[4.8012621,45.8573628,475.489],[4.8013801,45.857291,471.229],[4.8013986,45.8572976,470.896],[4.8015612,45.8573653,469.444]]]}},{"type":"Feature","properties":{"kind":"farmland","source":"osm","osmType":"way","osmId":229668608,"name":"","landuse":"farmland"},"geometry":{"type":"Polygon","coordinates":[[[4.8045593,45.8586389,415.746],[4.8046026,45.858589,413.974],[4.8047128,45.8584282,406.708],[4.8047617,45.8585202,408.753],[4.8047389,45.8586402,413.215],[4.8047111,45.8588429,421.154],[4.8045451,45.8588803,423.762],[4.8044204,45.8588259,423.254],[4.8044648,45.8587407,421.391],[4.8044475,45.8587124,420.13],[4.8044828,45.8586182,416.492],[4.8045593,45.8586389,415.746]]]}},{"type":"Feature","properties":{"kind":"farmland","source":"osm","osmType":"way","osmId":229669586,"name":"","landuse":"farmland"},"geometry":{"type":"Polygon","coordinates":[[[4.8053615,45.8583579,397.596],[4.8055682,45.8583782,401.554],[4.8053046,45.8586235,409.786],[4.8051642,45.8587525,416.426],[4.8047111,45.8588429,421.154],[4.8047389,45.8586402,413.215],[4.8047617,45.8585202,408.753],[4.8049461,45.8583211,399.308],[4.8053615,45.8583579,397.596]]]}},{"type":"Feature","properties":{"kind":"farmland","source":"osm","osmType":"way","osmId":230003444,"name":"","landuse":"farmland"},"geometry":{"type":"Polygon","coordinates":[[[4.8165106,45.8481632,411.802],[4.8165715,45.8478063,402.418],[4.8166984,45.8475167,396.427],[4.8162585,45.8474121,403.05],[4.8161029,45.8477241,417.961],[4.8161168,45.8478156,420.023],[4.8161365,45.8480669,423.914],[4.8163966,45.8481444,416.473],[4.8165106,45.8481632,411.802]]]}},{"type":"Feature","properties":{"kind":"farmland","source":"osm","osmType":"way","osmId":230699256,"name":"","landuse":"farmland"},"geometry":{"type":"Polygon","coordinates":[[[4.8016797,45.8720531,346.246],[4.8018712,45.872113,342.372],[4.8017063,45.8722402,342.397],[4.8012836,45.8722899,345.904],[4.8010502,45.872348,346.352],[4.800811,45.8725347,344.702],[4.8004083,45.8727142,338.034],[4.8005518,45.8729158,337.38],[4.8001822,45.8730471,325.106],[4.7999585,45.8727409,323.396],[4.7998375,45.8725136,321.147],[4.7991442,45.872409,304.437],[4.7991082,45.8721147,306.373],[4.7987908,45.8717286,309.574],[4.7993891,45.8715638,315.466],[4.7990779,45.8712911,324.421],[4.7984286,45.8715109,316.809],[4.7983033,45.8712973,324.207],[4.7980917,45.8712345,326.6],[4.7978776,45.8710225,334.591],[4.7976005,45.8711327,330.6],[4.7972768,45.8707812,343.549],[4.7969583,45.8703473,355.821],[4.7971279,45.8702807,356.381],[4.7969939,45.8701556,355.999],[4.7968319,45.8697195,357.059],[4.7973707,45.8692928,363.758],[4.7966679,45.8686466,376.519],[4.7972218,45.8684038,379.586],[4.7977851,45.8682245,381.862],[4.7986809,45.8692965,363.701],[4.7997163,45.8705665,356.881],[4.7997816,45.8706514,353.537],[4.7998169,45.8706972,352.709],[4.8000918,45.8706412,353.346],[4.8002152,45.870559,354.013],[4.8003171,45.8705179,354.141],[4.8010467,45.8718812,351.792],[4.8016797,45.8720531,346.246]]]}},{"type":"Feature","properties":{"kind":"orchard","source":"osm","osmType":"way","osmId":234888434,"name":"","landuse":"orchard"},"geometry":{"type":"Polygon","coordinates":[[[4.8006393,45.8746095,289.058],[4.8007653,45.8741631,302.709],[4.8006527,45.8739222,308.178],[4.8005721,45.8737477,312.571],[4.8004729,45.8737645,310.706],[4.8004626,45.8745989,286.657],[4.8005642,45.8746057,287.602],[4.8006393,45.8746095,289.058]]]}},{"type":"Feature","properties":{"kind":"farmland","source":"osm","osmType":"way","osmId":234888435,"name":"","landuse":"farmland"},"geometry":{"type":"Polygon","coordinates":[[[4.799392,45.8743966,275.257],[4.7988127,45.8740081,280.953],[4.7987993,45.8740492,280.222],[4.798907,45.8745466,271.13],[4.7989226,45.8747757,266.781],[4.798869,45.8750408,260.293],[4.7987949,45.8751872,255.832],[4.7987403,45.8753097,251.731],[4.7989495,45.8755674,248.697],[4.7990728,45.8757672,247.531],[4.7991265,45.8758307,246.772],[4.799333,45.8758121,247.077],[4.7995261,45.8757859,249.509],[4.7995583,45.8754012,252.048],[4.8008301,45.8754391,274.219],[4.8008119,45.8752006,277.996],[4.8001428,45.8751904,264.236],[4.7996173,45.8752,255.996],[4.7996871,45.8745385,277.749],[4.7995158,45.8744682,276.317],[4.799392,45.8743966,275.257]]]}},{"type":"Feature","properties":{"kind":"farmland","source":"osm","osmType":"way","osmId":234888444,"name":"","landuse":"farmland"},"geometry":{"type":"Polygon","coordinates":[[[4.8075567,45.8725142,321.867],[4.8075647,45.8727253,317.957],[4.8075544,45.8728173,317.639],[4.8075061,45.8728341,318.262],[4.806642,45.8728691,326.283],[4.8065776,45.8728493,327.238],[4.8065405,45.8728379,328.335],[4.8061756,45.8728057,337.036],[4.8059717,45.8727871,340.794],[4.8059127,45.8731886,334.356],[4.8053924,45.8731736,339.161],[4.8050276,45.8731475,342.334],[4.8049451,45.873173,341.611],[4.8048852,45.8731342,341.649],[4.8046894,45.8730465,341.819],[4.8045336,45.872998,340.304],[4.8044859,45.872935,340.603],[4.8039924,45.8727501,336.699],[4.8041932,45.8721109,347.269],[4.8044534,45.8720324,353.328],[4.8046049,45.8714507,353.714],[4.8043906,45.8713909,364.945],[4.80462,45.8708484,356.939],[4.8057147,45.8709586,355.685],[4.8058486,45.8710357,353.778],[4.8059675,45.8711042,352.174],[4.8058407,45.8715229,351.01],[4.8062433,45.8716437,346.353],[4.8064326,45.8712559,348.779],[4.8065498,45.8712672,348.472],[4.8063782,45.8717872,344.17],[4.8062207,45.8719859,344.793],[4.8063983,45.8721209,337.759],[4.806744,45.8721411,330.917],[4.8068677,45.8720608,329.714],[4.8070616,45.872072,327.042],[4.8071563,45.8722569,325.161],[4.8073011,45.8721963,324.643],[4.8075656,45.8722604,322.643],[4.8075567,45.8725142,321.867]]]}},{"type":"Feature","properties":{"kind":"orchard","source":"osm","osmType":"way","osmId":235828858,"name":"","landuse":"orchard"},"geometry":{"type":"Polygon","coordinates":[[[4.7998853,45.8768056,248.256],[4.80018,45.8767598,251.345],[4.8002631,45.8767393,252.567],[4.8003882,45.8769936,251.062],[4.8003198,45.87718,247.133],[4.7999699,45.8772433,243.001],[4.7998853,45.8768056,248.256]]]}},{"type":"Feature","properties":{"kind":"orchard","source":"osm","osmType":"way","osmId":235828860,"name":"","landuse":"orchard"},"geometry":{"type":"Polygon","coordinates":[[[4.7997271,45.875799,252.083],[4.7995261,45.8757859,249.509],[4.7995583,45.8754012,252.048],[4.8008301,45.8754391,274.219],[4.800829,45.875671,270.814],[4.8008384,45.8759308,267.139],[4.8001034,45.8759374,257.355],[4.8000962,45.8761069,255.874],[4.7997306,45.8760847,250.923],[4.7997271,45.875799,252.083]]]}},{"type":"Feature","properties":{"kind":"farmland","source":"osm","osmType":"way","osmId":237523813,"name":"","landuse":"farmland"},"geometry":{"type":"Polygon","coordinates":[[[4.7959688,45.8441127,498.654],[4.7945551,45.8445026,498.654],[4.7940406,45.8446445,498.654],[4.7940013,45.8446553,498.654],[4.7941327,45.8447562,498.654],[4.7942554,45.8448384,498.654],[4.794409,45.8449001,498.654],[4.7946235,45.8449711,498.654],[4.7948189,45.8450495,498.654],[4.7949691,45.8449972,498.654],[4.7950979,45.8450906,498.654],[4.7951891,45.8451691,498.654],[4.7952695,45.8451952,498.654],[4.795468,45.8452177,498.654],[4.7956075,45.8452625,498.654],[4.7957791,45.8453298,498.654],[4.7959454,45.8454531,498.654],[4.796337,45.8457894,498.654],[4.7968145,45.8461818,498.654],[4.7969206,45.8463393,498.654],[4.7972737,45.8466918,497.878],[4.7973989,45.8468058,496.562],[4.7975169,45.8469478,494.606],[4.7977157,45.8470524,492.009],[4.7987135,45.8465704,498.654],[4.7988261,45.8465891,498.654],[4.7987778,45.8466563,498.212],[4.797753,45.8471384,488.11],[4.797876,45.8472759,484.106],[4.7980589,45.8474113,481.595],[4.7982783,45.8475262,477.945],[4.7986275,45.8477103,471.205],[4.7987188,45.8476764,472.479],[4.7988448,45.8477736,468.755],[4.7987563,45.8478278,466.557],[4.7989307,45.8480015,459.796],[4.7990004,45.8480333,458.439],[4.7990298,45.8480391,458.235],[4.7990906,45.8480072,459.567],[4.7991908,45.847998,459.93],[4.7996253,45.8477813,470.576],[4.799845,45.8479942,464.185],[4.8008588,45.847494,475.966],[4.7994932,45.8462688,501.924],[4.7997963,45.8461212,500.807],[4.7992445,45.8457763,498.654],[4.7990792,45.845853,498.654],[4.7982755,45.8454206,498.654],[4.7977439,45.8451052,498.654],[4.7975173,45.8449224,498.654],[4.7969237,45.8443481,498.654],[4.7968574,45.8442946,498.654],[4.7961869,45.8444591,498.654],[4.7959688,45.8441127,498.654]]]}},{"type":"Feature","properties":{"kind":"orchard","source":"osm","osmType":"way","osmId":238028174,"name":"","landuse":"orchard"},"geometry":{"type":"Polygon","coordinates":[[[4.7984611,45.8862461,200.863],[4.7985657,45.885983,201.332],[4.7994455,45.8860427,201.751],[4.7993677,45.8862816,201.222],[4.7984611,45.8862461,200.863]]]}},{"type":"Feature","properties":{"kind":"farmland","source":"osm","osmType":"way","osmId":238122477,"name":"","landuse":"farmland"},"geometry":{"type":"Polygon","coordinates":[[[4.7988984,45.8882588,194.006],[4.7990013,45.8877158,197.208],[4.7992015,45.8870621,198.963],[4.7992036,45.8870435,198.993],[4.7992614,45.8865304,200.736],[4.7993677,45.8862816,201.222],[4.7984611,45.8862461,200.863],[4.7985657,45.885983,201.332],[4.7994455,45.8860427,201.751],[4.799998,45.8852716,203.441],[4.7986864,45.8851932,202.35],[4.798569,45.8851515,202.343],[4.7982546,45.8850868,202.45],[4.7982546,45.8850345,202.643],[4.798263,45.884652,203.388],[4.7982922,45.8841047,204.34],[4.7983546,45.8838398,204.605],[4.7982868,45.883834,204.604],[4.7981527,45.8838377,204.605],[4.7973775,45.8838974,204.501],[4.7974393,45.8842298,204.314],[4.7959596,45.8843701,204.068],[4.7955197,45.8837969,204.65],[4.7965578,45.883345,204.599],[4.7949243,45.8827519,206.571],[4.7939024,45.882432,207.033],[4.7942511,45.8834925,205.068],[4.7938997,45.8835149,205.121],[4.7938595,45.8833992,205.217],[4.7934652,45.8834048,205.201],[4.7931835,45.883963,204.564],[4.7932345,45.8840452,204.377],[4.7933016,45.8840807,204.359],[4.7938005,45.8841068,204.343],[4.7939185,45.8841497,204.344],[4.793948,45.8842207,204.318],[4.7939319,45.8847267,203.098],[4.7940043,45.88527,202.215],[4.7941438,45.8858619,201.289],[4.7942993,45.8863865,200.858],[4.7943879,45.886745,200.16],[4.794463,45.8872565,198.639],[4.7945273,45.8877644,196.923],[4.794589,45.8882778,193.95],[4.7946802,45.8888677,192.476],[4.7947741,45.8896631,185.471],[4.7948009,45.8902343,186.858],[4.7948331,45.8905891,186.858],[4.7948975,45.8907832,186.858],[4.795045,45.8912145,186.858],[4.7952059,45.8917764,186.858],[4.7953132,45.8920004,186.858],[4.7953374,45.8920033,186.858],[4.797444,45.8913734,186.858],[4.7976591,45.8914137,186.858],[4.7980696,45.8913675,186.858],[4.7982525,45.8913469,186.858],[4.798106,45.8912173,186.858],[4.797646,45.8909765,186.858],[4.7976211,45.8909634,186.858],[4.7973201,45.8910164,186.858],[4.7970846,45.8907536,186.858],[4.7968025,45.8906561,186.858],[4.7963824,45.8906505,186.858],[4.7963025,45.8903246,186.858],[4.7965074,45.890195,186.858],[4.7966693,45.8900526,186.858],[4.7964463,45.8895337,187.384],[4.7962419,45.8891432,191.669],[4.7966238,45.8890401,192.033],[4.7969532,45.8890722,191.931],[4.797311,45.8890233,192.087],[4.7973813,45.8887455,192.671],[4.7975687,45.8886336,193.035],[4.7976613,45.8884158,193.805],[4.7977691,45.8880917,194.66],[4.79773,45.8877187,197.192],[4.797517,45.88725,198.647],[4.7973496,45.8871496,198.787],[4.7972112,45.8867355,200.198],[4.7971295,45.8866006,200.628],[4.7970191,45.8864827,200.807],[4.7969515,45.8863751,200.858],[4.796906,45.8862553,200.833],[4.7968386,45.8860557,201.136],[4.7968155,45.8859197,201.247],[4.7968041,45.8858648,201.287],[4.7968921,45.8858558,201.286],[4.7969085,45.8859452,201.239],[4.796935,45.8861107,201.054],[4.7969915,45.8862962,200.847],[4.7970891,45.886423,200.864],[4.7972192,45.886555,200.684],[4.7973209,45.8867236,200.254],[4.797554,45.8871014,198.888],[4.7980803,45.8871668,198.751],[4.7981393,45.8872788,198.594],[4.7981822,45.8874058,198.524],[4.7982997,45.8875756,197.973],[4.7983318,45.8878482,196.431],[4.7984504,45.8878837,196.218],[4.7984606,45.8880797,194.751],[4.7988045,45.8881003,194.61],[4.7987918,45.8882497,194.023],[4.7988984,45.8882588,194.006]]]}},{"type":"Feature","properties":{"kind":"farmland","source":"osm","osmType":"way","osmId":297488252,"name":"","landuse":"farmland"},"geometry":{"type":"Polygon","coordinates":[[[4.8282887,45.863945,241.297],[4.8283095,45.8639515,240.831],[4.8283732,45.863855,240.467],[4.8273104,45.8635093,269.411],[4.8272869,45.8636184,267.614],[4.8277221,45.863758,254.314],[4.8277838,45.8637769,253.526],[4.8280614,45.8638698,245.862],[4.8282887,45.863945,241.297]]]}},{"type":"Feature","properties":{"kind":"farmland","source":"osm","osmType":"way","osmId":307273687,"name":"","landuse":"farmland"},"geometry":{"type":"Polygon","coordinates":[[[4.8324689,45.8690294,172.249],[4.8327451,45.8691956,170.846],[4.8331893,45.8691952,169.981],[4.833181,45.8689933,169.627],[4.8330343,45.8689942,169.954],[4.8324689,45.8689958,172.026],[4.8324689,45.8690294,172.249]]]}},{"type":"Feature","properties":{"kind":"orchard","source":"osm","osmType":"way","osmId":321112316,"name":"","landuse":"orchard"},"geometry":{"type":"Polygon","coordinates":[[[4.8241068,45.8752373,213.593],[4.8239126,45.8751231,214.058],[4.8241014,45.8750019,215.185],[4.824324,45.8751345,214.591],[4.8241305,45.8752521,213.493],[4.8241068,45.8752373,213.593]]]}},{"type":"Feature","properties":{"kind":"farmland","source":"osm","osmType":"way","osmId":337459923,"name":"","landuse":"farmland"},"geometry":{"type":"Polygon","coordinates":[[[4.8208438,45.8734918,219.184],[4.8204734,45.8736686,218.561],[4.8205685,45.8737579,217.666],[4.8207666,45.8736534,218.337],[4.8209573,45.8738262,215.372],[4.8211032,45.8737482,217.46],[4.8208438,45.8734918,219.184]]]}},{"type":"Feature","properties":{"kind":"farmland","source":"osm","osmType":"way","osmId":451679313,"name":"","landuse":"farmland"},"geometry":{"type":"Polygon","coordinates":[[[4.8268779,45.8694178,228.902],[4.8273329,45.8694915,227.158],[4.8273775,45.8693642,226.936],[4.8283247,45.8694325,224.558],[4.8282753,45.8698623,224.916],[4.828289,45.8699074,225.046],[4.8281178,45.8698881,225.754],[4.8280081,45.870093,225.798],[4.8274957,45.8710157,227.22],[4.8274388,45.8711131,227.498],[4.8279727,45.871363,226.409],[4.8282448,45.871489,225.613],[4.8281961,45.8715562,225.681],[4.828129,45.871614,225.829],[4.8273887,45.8712723,227.87],[4.8272738,45.8713802,227.958],[4.8279761,45.8717186,226.349],[4.8278716,45.8717682,226.615],[4.8277351,45.8718322,226.796],[4.8266918,45.8712887,228.708],[4.826563,45.8714269,228.42],[4.8274991,45.8719536,226.946],[4.8267115,45.8723489,222.654],[4.8263159,45.8720865,223.193],[4.8259226,45.8722729,219.249],[4.8260417,45.8723634,218.995],[4.826276,45.8725493,218.995],[4.8253426,45.8729191,201.81],[4.8250637,45.8726819,201.025],[4.8251942,45.8726193,204.432],[4.8256591,45.8723962,215.929],[4.82517,45.8720592,214.886],[4.8250955,45.8720037,214.839],[4.8249929,45.8718064,215.188],[4.8246448,45.8715687,212.312],[4.8245101,45.8714831,211.225],[4.8243599,45.871336,210.905],[4.8245162,45.8712611,216.711],[4.82478,45.8711321,220.792],[4.8249246,45.8710557,224.631],[4.8251245,45.8709506,225.699],[4.8252756,45.8708555,226.53],[4.8254919,45.8706788,229.675],[4.8256447,45.8705416,230.481],[4.8257637,45.8704035,230.985],[4.8259944,45.8700318,231.421],[4.8262599,45.8696621,230.928],[4.8264568,45.8692479,230.176],[4.8265469,45.8690341,230.521],[4.8266874,45.8687149,230.174],[4.826952,45.8687526,228.822],[4.827102,45.8687738,228.1],[4.8268779,45.8694178,228.902]]]}},{"type":"Feature","properties":{"kind":"orchard","source":"osm","osmType":"way","osmId":475594757,"name":"","landuse":"orchard"},"geometry":{"type":"Polygon","coordinates":[[[4.8392477,45.8915903,238.305],[4.8390066,45.8916729,237.526],[4.8387759,45.8917663,236.395],[4.8388028,45.8918783,236.525],[4.8393446,45.8918298,238.573],[4.8392477,45.8915903,238.305]]]}},{"type":"Feature","properties":{"kind":"farmland","source":"osm","osmType":"way","osmId":615465561,"name":"","landuse":"farmland"},"geometry":{"type":"Polygon","coordinates":[[[4.8285274,45.8738285,213.702],[4.8282529,45.8736909,215.874],[4.8279131,45.8735254,215.954],[4.8280325,45.8734246,217.964],[4.8277038,45.8732637,218.987],[4.8275708,45.8731984,218.3],[4.82703,45.8729361,218.194],[4.826309,45.872575,218.648],[4.8279131,45.8718026,226.556],[4.8284946,45.8721059,223.582],[4.8285108,45.8721157,223.471],[4.8284977,45.8721928,223.438],[4.8284544,45.8724175,223.27],[4.8288623,45.8726291,220.88],[4.8287168,45.8727907,220.124],[4.8284381,45.8726561,222.35],[4.8284081,45.8727243,222.107],[4.828504,45.8727748,221.298],[4.8282759,45.8730437,220.687],[4.8286001,45.8731952,218.273],[4.828634,45.8732122,218.284],[4.8287341,45.8732584,218.195],[4.8288652,45.8733181,217.277],[4.8289261,45.8733515,217.345],[4.8287255,45.8735914,215.785],[4.8285274,45.8738285,213.702]]]}},{"type":"Feature","properties":{"kind":"farmland","source":"osm","osmType":"way","osmId":806878168,"name":"","landuse":"farmland"},"geometry":{"type":"Polygon","coordinates":[[[4.8273458,45.8683048,225.108],[4.8277353,45.8682613,225.264],[4.8279387,45.8682375,223.955],[4.8281585,45.8682114,222.901],[4.8281187,45.8685639,224.248],[4.8276666,45.8685567,225.651],[4.8273034,45.8685516,227.375],[4.8273458,45.8683048,225.108]]]}},{"type":"Feature","properties":{"kind":"farmland","source":"osm","osmType":"way","osmId":808897298,"name":"","landuse":"farmland"},"geometry":{"type":"Polygon","coordinates":[[[4.8066136,45.8561474,343.723],[4.8066506,45.8561184,344.122],[4.8067202,45.856061,342.205],[4.8067828,45.856067,341.608],[4.8068807,45.8561226,343.122],[4.8070141,45.8561618,344.852],[4.8073105,45.8563215,356.976],[4.8072743,45.8563542,358.635],[4.8071333,45.8564505,362.717],[4.8066136,45.8561474,343.723]]]}},{"type":"Feature","properties":{"kind":"farmland","source":"osm","osmType":"way","osmId":813372948,"name":"","landuse":"farmland"},"geometry":{"type":"Polygon","coordinates":[[[4.8027742,45.8617461,482.041],[4.8031712,45.8619338,473.554],[4.8036933,45.8621093,467.056],[4.8040406,45.8621317,461.117],[4.8040724,45.862074,461.389],[4.8039839,45.8617209,462.964],[4.803823,45.8613828,464.15],[4.8033911,45.8613828,472.559],[4.8032275,45.8613735,473.901],[4.8032574,45.861251,473.946],[4.8030992,45.8608304,474.508],[4.8020299,45.8609396,497.975],[4.8020899,45.8613929,498.585],[4.8021916,45.8621201,501.245],[4.8028332,45.8621337,479.942],[4.8027742,45.8617461,482.041]]]}},{"type":"Feature","properties":{"kind":"vineyard","source":"osm","osmType":"way","osmId":1469728347,"name":"Vinea in Transitione","landuse":"vineyard"},"geometry":{"type":"Polygon","coordinates":[[[4.804059,45.8864736,196.394],[4.8041736,45.8864575,196.896],[4.804151,45.8863793,196.815],[4.8040364,45.8863954,196.537],[4.804059,45.8864736,196.394]]]}},{"type":"Feature","properties":{"kind":"farmland","source":"osm","osmType":"relation","osmId":6992485,"name":"","landuse":"farmland"},"geometry":{"type":"Polygon","coordinates":[[[4.8409966,45.8927902,242.516],[4.8410866,45.8926853,242.516],[4.8409902,45.8922672,242.516],[4.8409108,45.8920969,242.516],[4.8408893,45.8920508,242.51],[4.8408518,45.8919724,242.405],[4.8408518,45.8919201,242.405],[4.840738,45.8917407,242.218],[4.840664,45.8915654,242.111],[4.8406586,45.8915019,242.097],[4.8405353,45.8912107,241.86],[4.8404816,45.8910763,241.743],[4.8404215,45.8909342,241.564],[4.8403625,45.8908185,241.458],[4.8402402,45.8906544,241.138],[4.840105,45.8904638,240.826],[4.840046,45.8904525,240.708],[4.8399763,45.8903965,240.442],[4.8399763,45.8902808,240.442],[4.8399924,45.8902173,240.485],[4.8400138,45.89018,240.563],[4.8400353,45.8901501,240.677],[4.8400943,45.8901352,240.804],[4.8401319,45.8901314,240.837],[4.840208,45.889986,241.04],[4.8401801,45.8899298,240.956],[4.840164,45.8896983,240.89],[4.8401748,45.8896348,240.758],[4.8401587,45.889493,240.519],[4.8400739,45.8895193,240.349],[4.8399709,45.8894705,240.122],[4.8399226,45.8894332,240.032],[4.8398583,45.8893772,239.906],[4.8397563,45.8893623,239.75],[4.8397189,45.8894182,239.624],[4.8397297,45.8894929,239.591],[4.8381525,45.8893734,234.85],[4.8381803,45.889635,235.08],[4.8384154,45.8897804,235.413],[4.8377556,45.8898327,233.918],[4.8373479,45.8896273,232.806],[4.8366008,45.8895123,231.644],[4.8364348,45.8896799,230.847],[4.8365215,45.8897764,231.036],[4.8368444,45.8898049,231.773],[4.8369968,45.8898183,231.944],[4.8374892,45.8902408,232.514],[4.8377996,45.8906468,234.587],[4.8369284,45.8909177,232.104],[4.8371144,45.891106,232.067],[4.8374078,45.8912368,232.545],[4.8376906,45.8913399,233.015],[4.8379807,45.8913719,234.884],[4.838429,45.8913158,235.436],[4.8383951,45.8912734,235.38],[4.8385721,45.8912212,235.718],[4.8385721,45.8913406,235.718],[4.8385131,45.8914489,235.622],[4.838556,45.8919269,235.69],[4.8395003,45.8920103,239.025],[4.840137,45.892087,240.85],[4.8406667,45.8923505,242.115],[4.8408463,45.8925443,242.399],[4.8409966,45.8927902,242.516]],[[4.8392477,45.8915903,238.305],[4.8390066,45.8916729,237.526],[4.8387759,45.8917663,236.395],[4.8388028,45.8918783,236.525],[4.8393446,45.8918298,238.573],[4.8392477,45.8915903,238.305]],[[4.8395055,45.8917962,239.033],[4.8393929,45.8915497,238.731],[4.8392477,45.8915903,238.305],[4.8393446,45.8918298,238.573],[4.8395055,45.8917962,239.033]],[[4.838894,45.8914377,237.033],[4.8387867,45.8914452,236.446],[4.8386794,45.8914228,236.026],[4.8387116,45.8913108,236.121],[4.838835,45.8912697,236.725],[4.8389047,45.8913892,237.096],[4.838894,45.8914377,237.033]]]}}]}