{"type": "FeatureCollection", "features": [{"type": "Feature", "properties": {"kind": "farmland", "source": "osm", "osmType": "way", "osmId": 41740617, "name": "", "landuse": "farmland"}, "geometry": {"type": "Polygon", "coordinates": [[[4.8110442, 45.884403], [4.8100869, 45.883618], [4.8090467, 45.8843731], [4.8087677, 45.8846472], [4.8075912, 45.885759], [4.808626, 45.8863053], [4.8096559, 45.8854334], [4.8110442, 45.884403]]]}}, {"type": "Feature", "properties": {"kind": "farmland", "source": "osm", "osmType": "way", "osmId": 124373945, "name": "", "landuse": "farmland"}, "geometry": {"type": "Polygon", "coordinates": [[[4.8402954, 45.8889027], [4.8401003, 45.8890561], [4.8398937, 45.8890066], [4.8393802, 45.8890231], [4.8392602, 45.8889673], [4.8384984, 45.8887981], [4.8384905, 45.8885589], [4.8378998, 45.8882551], [4.8375034, 45.8881632], [4.8369076, 45.8885407], [4.8365812, 45.8884504], [4.8366732, 45.8882349], [4.8371748, 45.8879773], [4.8378207, 45.8879433], [4.8380854, 45.8877672], [4.8382597, 45.8876713], [4.8383829, 45.8874919], [4.8384277, 45.8873711], [4.8383383, 45.8873484], [4.8380307, 45.8872594], [4.8377179, 45.8868451], [4.8374012, 45.8868416], [4.8369031, 45.8867042], [4.8371794, 45.8862353], [4.8374218, 45.8858115], [4.8381891, 45.8860208], [4.8384006, 45.8857583], [4.8386188, 45.8854557], [4.8392397, 45.8856732], [4.8403175, 45.8861435], [4.8405108, 45.8862354], [4.8405789, 45.8862902], [4.8406006, 45.8864958], [4.8406379, 45.887274], [4.8406315, 45.8875234], [4.8406362, 45.8877606], [4.8405599, 45.8880115], [4.8402767, 45.8887238], [4.8402954, 45.8889027]]]}}, {"type": "Feature", "properties": {"kind": "orchard", "source": "osm", "osmType": "way", "osmId": 125772694, "name": "", "landuse": "orchard"}, "geometry": {"type": "Polygon", "coordinates": [[[4.8307063, 45.8691113], [4.8310393, 45.8691255], [4.8312945, 45.869137], [4.8313003, 45.8688934], [4.831263, 45.8686338], [4.8313477, 45.868322], [4.8308168, 45.8682306], [4.8307063, 45.8691113]]]}}, {"type": "Feature", "properties": {"kind": "farmland", "source": "osm", "osmType": "way", "osmId": 125772697, "name": "", "landuse": "farmland"}, "geometry": {"type": "Polygon", "coordinates": [[[4.8286503, 45.8680219], [4.8288284, 45.8680346], [4.828904, 45.8680747], [4.8289173, 45.868114], [4.8291608, 45.8681275], [4.8291853, 45.8680679], [4.8292369, 45.8679614], [4.8294976, 45.8680054], [4.8308168, 45.8682306], [4.8307063, 45.8691113], [4.8302735, 45.869071], [4.8302315, 45.8692953], [4.8302118, 45.8693235], [4.8284713, 45.8691645], [4.8285054, 45.8689128], [4.8287697, 45.8689385], [4.8287999, 45.8687585], [4.8288048, 45.8687329], [4.8287631, 45.8687285], [4.8287861, 45.8685844], [4.828559, 45.868561], [4.8286503, 45.8680219]]]}}, {"type": "Feature", "properties": {"kind": "orchard", "source": "osm", "osmType": "way", "osmId": 125774582, "name": "", "landuse": "orchard"}, "geometry": {"type": "Polygon", "coordinates": [[[4.8279761, 45.8717186], [4.828129, 45.871614], [4.8273887, 45.8712723], [4.8272738, 45.8713802], [4.8279761, 45.8717186]]]}}, {"type": "Feature", "properties": {"kind": "farmland", "source": "osm", "osmType": "way", "osmId": 126122320, "name": "", "landuse": "farmland"}, "geometry": {"type": "Polygon", "coordinates": [[[4.8295692, 45.8747595], [4.8297257, 45.874397], [4.8291674, 45.8741732], [4.8288812, 45.8745295], [4.8292583, 45.8746591], [4.8293651, 45.8746945], [4.8293762, 45.874698], [4.8295692, 45.8747595]]]}}, {"type": "Feature", "properties": {"kind": "farmland", "source": "osm", "osmType": "way", "osmId": 126122321, "name": "", "landuse": "farmland"}, "geometry": {"type": "Polygon", "coordinates": [[[4.8262317, 45.8734665], [4.826494, 45.8732888], [4.8265954, 45.8732237], [4.8258074, 45.8727733], [4.8254305, 45.8729281], [4.8254198, 45.8729486], [4.8254493, 45.8729794], [4.8260281, 45.8733072], [4.8262317, 45.8734665]]]}}, {"type": "Feature", "properties": {"kind": "farmland", "source": "osm", "osmType": "way", "osmId": 142876713, "name": "", "landuse": "farmland"}, "geometry": {"type": "Polygon", "coordinates": [[[4.8267587, 45.8682194], [4.8266257, 45.8682524], [4.8264364, 45.8682972], [4.8263765, 45.8678426], [4.8263522, 45.8675761], [4.8263179, 45.8672557], [4.8264235, 45.8671235], [4.8266804, 45.8671734], [4.8267587, 45.8682194]]]}}, {"type": "Feature", "properties": {"kind": "farmland", "source": "osm", "osmType": "way", "osmId": 157863330, "name": "", "landuse": "farmland"}, "geometry": {"type": "Polygon", "coordinates": [[[4.8210133, 45.8667041], [4.8214452, 45.8665823], [4.8217119, 45.8664996], [4.8218461, 45.8665025], [4.8231256, 45.8661476], [4.8231691, 45.8662347], [4.8231843, 45.8662563], [4.8233524, 45.8662291], [4.8236166, 45.8661721], [4.8230827, 45.8653603], [4.8229968, 45.8652267], [4.8231025, 45.8651153], [4.8212762, 45.8653519], [4.8212976, 45.8654303], [4.8212692, 45.8655048], [4.8212118, 45.8655461], [4.8211018, 45.8656134], [4.8209903, 45.8656486], [4.8209232, 45.8657252], [4.8210026, 45.8662447], [4.821001, 45.8664181], [4.8209927, 45.8665174], [4.8210133, 45.8667041]]]}}, {"type": "Feature", "properties": {"kind": "farmland", "source": "osm", "osmType": "way", "osmId": 157863346, "name": "", "landuse": "farmland"}, "geometry": {"type": "Polygon", "coordinates": [[[4.8212921, 45.8639285], [4.8212317, 45.8646045], [4.8211689, 45.8651913], [4.8211823, 45.8654303], [4.8211421, 45.8654808], [4.8209795, 45.8655533], [4.8208287, 45.8655982], [4.8204975, 45.8647246], [4.8205624, 45.8644723], [4.8206877, 45.8642825], [4.8208537, 45.8640982], [4.8211354, 45.8639377], [4.8212921, 45.8639285]]]}}, {"type": "Feature", "properties": {"kind": "farmland", "source": "osm", "osmType": "way", "osmId": 157863353, "name": "", "landuse": "farmland"}, "geometry": {"type": "Polygon", "coordinates": [[[4.824182, 45.8690592], [4.8244029, 45.8688571], [4.8244758, 45.8687991], [4.824582, 45.8687259], [4.8239556, 45.867991], [4.8235694, 45.8675408], [4.8231691, 45.867094], [4.8230611, 45.866974], [4.8230108, 45.8669194], [4.8229055, 45.8668085], [4.8227789, 45.866671], [4.822919, 45.8665752], [4.8226887, 45.8663597], [4.8226462, 45.8663171], [4.8220393, 45.8665081], [4.821987, 45.8666789], [4.8217841, 45.8667132], [4.8217106, 45.8666005], [4.8218461, 45.8665025], [4.8217119, 45.8664996], [4.8214452, 45.8665823], [4.8215408, 45.8667319], [4.8213758, 45.8667893], [4.8218187, 45.867426], [4.8219156, 45.8673831], [4.8221788, 45.8676804], [4.8227273, 45.8674409], [4.8229847, 45.867751], [4.8229129, 45.8677849], [4.8227108, 45.8675972], [4.8222719, 45.8677884], [4.8226138, 45.8681861], [4.8225005, 45.8682332], [4.8225666, 45.8683026], [4.8230351, 45.8681045], [4.8231494, 45.8682508], [4.8232221, 45.8683393], [4.8234957, 45.868245], [4.823824, 45.868608], [4.824182, 45.8690592]]]}}, {"type": "Feature", "properties": {"kind": "farmland", "source": "osm", "osmType": "way", "osmId": 158003394, "name": "", "landuse": "farmland"}, "geometry": {"type": "Polygon", "coordinates": [[[4.8150053, 45.8665547], [4.8157399, 45.867172], [4.8163448, 45.8674449], [4.8175344, 45.8679802], [4.8182331, 45.8682921], [4.8189063, 45.8686088], [4.8190695, 45.8684961], [4.818256, 45.8679688], [4.8177609, 45.8677027], [4.8159802, 45.8668878], [4.8150315, 45.8665118], [4.8150053, 45.8665547]]]}}, {"type": "Feature", "properties": {"kind": "orchard", "source": "osm", "osmType": "way", "osmId": 158209814, "name": "", "landuse": "orchard"}, "geometry": {"type": "Polygon", "coordinates": [[[4.8294218, 45.8640091], [4.8293168, 45.8639792], [4.8292948, 45.8639718], [4.8292237, 45.8639507], [4.8285139, 45.8637466], [4.8283629, 45.8639866], [4.828543, 45.8640337], [4.8289084, 45.8641263], [4.8293154, 45.8642295], [4.8294218, 45.8640091]]]}}, {"type": "Feature", "properties": {"kind": "farmland", "source": "osm", "osmType": "way", "osmId": 159144375, "name": "", "landuse": "farmland"}, "geometry": {"type": "Polygon", "coordinates": [[[4.8190283, 45.8688708], [4.8193185, 45.8690758], [4.8195862, 45.8692854], [4.8197262, 45.8694008], [4.8194145, 45.8695805], [4.8190765, 45.8693302], [4.818884, 45.8689936], [4.8190283, 45.8688708]]]}}, {"type": "Feature", "properties": {"kind": "farmland", "source": "osm", "osmType": "way", "osmId": 159144993, "name": "", "landuse": "farmland"}, "geometry": {"type": "Polygon", "coordinates": [[[4.8119638, 45.8709061], [4.8105691, 45.8697631], [4.8105432, 45.8697353], [4.8102213, 45.8698436], [4.8099361, 45.8698901], [4.808772, 45.8693858], [4.808929, 45.869257], [4.8090291, 45.8692936], [4.8093165, 45.8691076], [4.8096626, 45.8689115], [4.8111217, 45.8695147], [4.8113613, 45.8693683], [4.8115557, 45.8692143], [4.8117788, 45.8690292], [4.8122719, 45.8691564], [4.8129294, 45.8693896], [4.8127658, 45.8697313], [4.8132433, 45.8699611], [4.8128812, 45.8703999], [4.8126184, 45.8706129], [4.8123313, 45.8707604], [4.8119638, 45.8709061]]]}}, {"type": "Feature", "properties": {"kind": "farmland", "source": "osm", "osmType": "way", "osmId": 159144997, "name": "", "landuse": "farmland"}, "geometry": {"type": "Polygon", "coordinates": [[[4.806814, 45.8697482], [4.806422, 45.8695738], [4.8061931, 45.869539], [4.8056218, 45.8695904], [4.8053751, 45.8696426], [4.8048735, 45.8693466], [4.8046387, 45.8690422], [4.8045422, 45.8688891], [4.8045337, 45.8687595], [4.8043786, 45.8684221], [4.804848, 45.8679561], [4.8048516, 45.8678948], [4.8053174, 45.8676209], [4.8056165, 45.8678787], [4.805882, 45.8680346], [4.8060053, 45.8680654], [4.806224, 45.8680907], [4.8067144, 45.8680881], [4.8072492, 45.868128], [4.8074671, 45.8682447], [4.807903, 45.8682839], [4.8081176, 45.8684856], [4.8087099, 45.8684877], [4.8090134, 45.8685379], [4.8089652, 45.8687957], [4.8085092, 45.869524], [4.8072217, 45.8690889], [4.8071717, 45.8692488], [4.806814, 45.8697482]]]}}, {"type": "Feature", "properties": {"kind": "farmland", "source": "osm", "osmType": "way", "osmId": 159145000, "name": "", "landuse": "farmland"}, "geometry": {"type": "Polygon", "coordinates": [[[4.8151286, 45.8733863], [4.8155419, 45.8729603], [4.816136, 45.8724505], [4.8160539, 45.8723993], [4.8145642, 45.8713687], [4.8143786, 45.8713915], [4.8142509, 45.8714768], [4.8138739, 45.8718379], [4.8136379, 45.8723279], [4.8135287, 45.872498], [4.8148714, 45.873106], [4.8151286, 45.8733863]]]}}, {"type": "Feature", "properties": {"kind": "farmland", "source": "osm", "osmType": "way", "osmId": 159472298, "name": "", "landuse": "farmland"}, "geometry": {"type": "Polygon", "coordinates": [[[4.8228474, 45.8777973], [4.8242422, 45.8776404], [4.8245603, 45.8776326], [4.8253848, 45.8774033], [4.8256825, 45.8772763], [4.8258504, 45.8770986], [4.8258515, 45.8768935], [4.8253902, 45.8768263], [4.8252292, 45.8766474], [4.8250629, 45.8764696], [4.8250002, 45.8764403], [4.8248848, 45.876464], [4.8248366, 45.8763712], [4.824842, 45.8762591], [4.8249195, 45.8762673], [4.8246402, 45.8760058], [4.8244359, 45.8758573], [4.8241842, 45.8756984], [4.8241103, 45.8756592], [4.823891, 45.8755401], [4.8238518, 45.8755628], [4.8234597, 45.8753714], [4.8230422, 45.8751541], [4.821233, 45.875788], [4.8211043, 45.8755341], [4.8227103, 45.8749931], [4.8222697, 45.8747587], [4.8219424, 45.8745757], [4.8217587, 45.8745331], [4.8215066, 45.8745219], [4.8210359, 45.8745047], [4.8207878, 45.8745256], [4.820317, 45.8746355], [4.8198503, 45.8747886], [4.8196076, 45.8748767], [4.8196691, 45.876301], [4.820777, 45.8762362], [4.8208414, 45.8769607], [4.8209219, 45.8771139], [4.8210345, 45.8772222], [4.8211525, 45.8773006], [4.8213135, 45.8773305], [4.8215817, 45.8772931], [4.8221825, 45.8772334], [4.8223448, 45.8773208], [4.8228474, 45.8777973]]]}}, {"type": "Feature", "properties": {"kind": "farmland", "source": "osm", "osmType": "way", "osmId": 159472302, "name": "", "landuse": "farmland"}, "geometry": {"type": "Polygon", "coordinates": [[[4.8269555, 45.8783001], [4.8269783, 45.878238], [4.8268671, 45.8780166], [4.8267411, 45.8777785], [4.8269315, 45.8777748], [4.8269756, 45.8776246], [4.8261683, 45.8774761], [4.8258918, 45.8778575], [4.8258786, 45.8778757], [4.8257083, 45.8779407], [4.8212397, 45.8786167], [4.8199362, 45.8788781], [4.8199348, 45.8791044], [4.819967, 45.8792277], [4.8200689, 45.8792874], [4.8202205, 45.8794233], [4.8204887, 45.8793524], [4.8209876, 45.879259], [4.8226492, 45.8791455], [4.8234646, 45.8790671], [4.8239474, 45.8789999], [4.8250578, 45.8788393], [4.8258679, 45.8786413], [4.8269193, 45.8783351], [4.8269555, 45.8783001]]]}}, {"type": "Feature", "properties": {"kind": "farmland", "source": "osm", "osmType": "way", "osmId": 159472303, "name": "", "landuse": "farmland"}, "geometry": {"type": "Polygon", "coordinates": [[[4.8180143, 45.8757021], [4.8174296, 45.8752166], [4.8172647, 45.8750948], [4.817191, 45.8749846], [4.8182415, 45.8745295], [4.8187723, 45.8743128], [4.8190175, 45.8745742], [4.8189276, 45.874811], [4.8187453, 45.875121], [4.8185186, 45.8753809], [4.8182611, 45.8755639], [4.8180143, 45.8757021]]]}}, {"type": "Feature", "properties": {"kind": "farmland", "source": "osm", "osmType": "way", "osmId": 159506579, "name": "", "landuse": "farmland"}, "geometry": {"type": "Polygon", "coordinates": [[[4.8182184, 45.8744883], [4.8178038, 45.8738431], [4.8175776, 45.8739165], [4.817124, 45.8740661], [4.8168249, 45.8741656], [4.8167056, 45.8740101], [4.8166841, 45.8738952], [4.8166452, 45.8736786], [4.8165165, 45.8737178], [4.8164823, 45.8736667], [4.8163907, 45.8737019], [4.8163101, 45.8737328], [4.8160385, 45.8738291], [4.8154718, 45.8739551], [4.8152519, 45.8740251], [4.8145974, 45.8742828], [4.8137735, 45.8747394], [4.8133314, 45.8749887], [4.8131222, 45.8750074], [4.8127703, 45.8750793], [4.8125482, 45.8751717], [4.812427, 45.8752997], [4.8123948, 45.8754341], [4.8124088, 45.8754817], [4.8124785, 45.8754593], [4.8125697, 45.8754967], [4.8125965, 45.8755676], [4.8126448, 45.8756199], [4.8127574, 45.8756722], [4.812854, 45.8756423], [4.8129398, 45.8755975], [4.8131008, 45.8756946], [4.8132671, 45.8758067], [4.8134119, 45.8758291], [4.8135138, 45.8758963], [4.8132585, 45.8759869], [4.8132671, 45.8760532], [4.8133314, 45.8761092], [4.8135407, 45.8763109], [4.8137552, 45.8764341], [4.8139859, 45.87652], [4.8145492, 45.8766507], [4.8148227, 45.8766545], [4.8150373, 45.8766283], [4.8151553, 45.8766657], [4.8152465, 45.8767254], [4.8155362, 45.8766843], [4.8158795, 45.876576], [4.8160619, 45.8764939], [4.8161216, 45.8765085], [4.8160855, 45.8763641], [4.81677, 45.8760121], [4.8168634, 45.8759607], [4.8168022, 45.8759187], [4.8167218, 45.8759038], [4.8166467, 45.8758851], [4.8165715, 45.8758664], [4.8165093, 45.8758001], [4.816534, 45.8757432], [4.8166788, 45.8757208], [4.8166542, 45.8756134], [4.8167003, 45.8754743], [4.816829, 45.8754257], [4.8169578, 45.8753473], [4.8170887, 45.8752847], [4.8171509, 45.8752278], [4.8172228, 45.8751615], [4.8172647, 45.8750948], [4.817191, 45.8749846], [4.8182415, 45.8745295], [4.8182184, 45.8744883]]]}}, {"type": "Feature", "properties": {"kind": "farmland", "source": "osm", "osmType": "way", "osmId": 160451386, "name": "", "landuse": "farmland"}, "geometry": {"type": "Polygon", "coordinates": [[[4.816896, 45.8553027], [4.8167646, 45.8552746], [4.816511, 45.8551217], [4.8163688, 45.8550432], [4.8162588, 45.8549815], [4.8161918, 45.8549106], [4.8156877, 45.8547935], [4.8155333, 45.8548396], [4.815186, 45.8547478], [4.8152305, 45.8546096], [4.8151546, 45.8544426], [4.8150749, 45.854264], [4.8149569, 45.8541071], [4.8148113, 45.8538896], [4.8144312, 45.8533972], [4.8142694, 45.8532582], [4.8141448, 45.8531272], [4.8142779, 45.8530348], [4.8143668, 45.8530983], [4.814932, 45.8533889], [4.8147316, 45.8535354], [4.8147737, 45.853643], [4.8148086, 45.8536472], [4.814892, 45.8536572], [4.8148051, 45.8537531], [4.8153603, 45.8538039], [4.8159, 45.8543727], [4.8153544, 45.8545655], [4.8153785, 45.8546393], [4.8160019, 45.8544514], [4.8163005, 45.8546954], [4.8166492, 45.8549701], [4.8167667, 45.8551174], [4.8168583, 45.8552243], [4.816896, 45.8553027]]]}}, {"type": "Feature", "properties": {"kind": "farmland", "source": "osm", "osmType": "way", "osmId": 161405478, "name": "", "landuse": "farmland"}, "geometry": {"type": "Polygon", "coordinates": [[[4.8089649, 45.877659], [4.8093297, 45.8775059], [4.8096717, 45.8774503], [4.8100593, 45.8774387], [4.8104978, 45.8774129], [4.8109484, 45.8773121], [4.8111308, 45.8771963], [4.8113414, 45.8769532], [4.8118926, 45.8763074], [4.8120391, 45.8761437], [4.8113937, 45.8757696], [4.8113146, 45.8757058], [4.8123016, 45.8755153], [4.8122533, 45.8751978], [4.8116579, 45.8753584], [4.8107137, 45.875675], [4.8101773, 45.8757926], [4.8098876, 45.8758738], [4.8096087, 45.8760344], [4.8092224, 45.8762174], [4.8086954, 45.8763186], [4.8084661, 45.876434], [4.8084446, 45.8765797], [4.8089529, 45.8773942], [4.8089636, 45.8775025], [4.8088349, 45.8776108], [4.8088456, 45.8776445], [4.8089046, 45.8776631], [4.8089649, 45.877659]]]}}, {"type": "Feature", "properties": {"kind": "farmland", "source": "osm", "osmType": "way", "osmId": 161450625, "name": "", "landuse": "farmland"}, "geometry": {"type": "Polygon", "coordinates": [[[4.8208274, 45.8744485], [4.8214983, 45.8744576], [4.8217784, 45.8743552], [4.821432, 45.874069], [4.8218303, 45.8739067], [4.8215012, 45.8735947], [4.8214745, 45.8735731], [4.8212709, 45.8733813], [4.821095, 45.8732062], [4.8210172, 45.8732472], [4.8207758, 45.8733668], [4.8208762, 45.8734747], [4.8208438, 45.8734918], [4.8211032, 45.8737482], [4.8209573, 45.8738262], [4.8207502, 45.8739216], [4.8210597, 45.8742064], [4.8207395, 45.8743547], [4.8208274, 45.8744485]]]}}, {"type": "Feature", "properties": {"kind": "farmland", "source": "osm", "osmType": "way", "osmId": 161668048, "name": "", "landuse": "farmland"}, "geometry": {"type": "Polygon", "coordinates": [[[4.8100697, 45.8775451], [4.8104801, 45.8775403], [4.8106269, 45.8775241], [4.8106712, 45.8775714], [4.811321, 45.8785805], [4.811384, 45.8786869], [4.8117354, 45.878614], [4.8118883, 45.8785281], [4.8114652, 45.877923], [4.8114229, 45.8778382], [4.812242, 45.8776555], [4.812275, 45.8776481], [4.8123684, 45.8777975], [4.8125705, 45.8780584], [4.8126735, 45.8780939], [4.8132774, 45.8780065], [4.8134651, 45.8781409], [4.81361, 45.8782679], [4.813889, 45.8784789], [4.8144254, 45.8789103], [4.8146147, 45.8790244], [4.8147891, 45.8790333], [4.8148146, 45.8792238], [4.8144793, 45.8793605], [4.8143224, 45.8792176], [4.8140512, 45.8789728], [4.8138782, 45.878843], [4.8136851, 45.8788206], [4.8134748, 45.8788367], [4.8132602, 45.8789114], [4.8130521, 45.8790746], [4.8129663, 45.8793061], [4.812859, 45.8794928], [4.8124341, 45.8797554], [4.8125199, 45.8800317], [4.8126701, 45.8805322], [4.8126122, 45.8805833], [4.8127131, 45.8807114], [4.8126659, 45.8807775], [4.8125307, 45.8807936], [4.8124406, 45.8806729], [4.8122689, 45.8803966], [4.8121938, 45.8802397], [4.8121294, 45.8800082], [4.8120908, 45.8798674], [4.811829, 45.8796123], [4.8115286, 45.8792165], [4.8113462, 45.8790522], [4.8111424, 45.8786862], [4.8108956, 45.8785741], [4.810681, 45.8784397], [4.8103162, 45.8779318], [4.8100695, 45.8777376], [4.8099679, 45.8776884], [4.8099884, 45.8775519], [4.8100697, 45.8775451]]]}}, {"type": "Feature", "properties": {"kind": "farmland", "source": "osm", "osmType": "way", "osmId": 161735514, "name": "", "landuse": "farmland"}, "geometry": {"type": "Polygon", "coordinates": [[[4.8122237, 45.8751193], [4.81239, 45.8750035], [4.8127038, 45.874912], [4.8129318, 45.8748803], [4.8129801, 45.8748803], [4.8130149, 45.8749102], [4.8131651, 45.8748784], [4.8133663, 45.8747963], [4.8137552, 45.8745621], [4.8130766, 45.8739503], [4.8126957, 45.8735992], [4.8130483, 45.873247], [4.8134334, 45.8735451], [4.8136801, 45.8733789], [4.8139215, 45.87356], [4.8139674, 45.8735376], [4.8141619, 45.8734426], [4.8146323, 45.8732127], [4.8145235, 45.8731275], [4.8143787, 45.873092], [4.8142273, 45.8730334], [4.8141293, 45.8729613], [4.8139054, 45.8728765], [4.8137203, 45.8727758], [4.8134843, 45.8726488], [4.813436, 45.8726413], [4.8132483, 45.8726899], [4.8131025, 45.8727447], [4.8130432, 45.872779], [4.8128187, 45.8727133], [4.8125113, 45.8728012], [4.8120831, 45.8731441], [4.8119656, 45.8732383], [4.8124611, 45.8737792], [4.8122718, 45.8739118], [4.8118375, 45.8740304], [4.8122026, 45.874467], [4.8117217, 45.8746033], [4.8121812, 45.8751505], [4.8122237, 45.8751193]]]}}, {"type": "Feature", "properties": {"kind": "farmland", "source": "osm", "osmType": "way", "osmId": 161735515, "name": "", "landuse": "farmland"}, "geometry": {"type": "Polygon", "coordinates": [[[4.8112419, 45.8736401], [4.8115114, 45.8735084], [4.8109052, 45.8724645], [4.8110475, 45.8723602], [4.8116027, 45.8722752], [4.8115624, 45.8722246], [4.81046, 45.8724309], [4.8106263, 45.8728194], [4.8107551, 45.873025], [4.8108516, 45.8731705], [4.8110582, 45.8734254], [4.8112419, 45.8736401]]]}}, {"type": "Feature", "properties": {"kind": "orchard", "source": "osm", "osmType": "way", "osmId": 161735902, "name": "", "landuse": "orchard"}, "geometry": {"type": "Polygon", "coordinates": [[[4.8221788, 45.8676804], [4.8227273, 45.8674409], [4.8229847, 45.867751], [4.8229129, 45.8677849], [4.8227108, 45.8675972], [4.8222719, 45.8677884], [4.8221599, 45.8678359], [4.82207, 45.8677276], [4.8221788, 45.8676804]]]}}, {"type": "Feature", "properties": {"kind": "farmland", "source": "osm", "osmType": "way", "osmId": 163809610, "name": "", "landuse": "farmland"}, "geometry": {"type": "Polygon", "coordinates": [[[4.8190766, 45.8807102], [4.8187279, 45.8799223], [4.8178012, 45.880087], [4.8173222, 45.8801721], [4.8180225, 45.8810773], [4.8182192, 45.8810088], [4.8190766, 45.8807102]]]}}, {"type": "Feature", "properties": {"kind": "farmland", "source": "osm", "osmType": "way", "osmId": 163902685, "name": "", "landuse": "farmland"}, "geometry": {"type": "Polygon", "coordinates": [[[4.8184463, 45.8786263], [4.8182424, 45.8784228], [4.8180063, 45.8785908], [4.8182853, 45.8788672], [4.8186367, 45.8787869], [4.8184463, 45.8786263]]]}}, {"type": "Feature", "properties": {"kind": "farmland", "source": "osm", "osmType": "way", "osmId": 163921085, "name": "", "landuse": "farmland"}, "geometry": {"type": "Polygon", "coordinates": [[[4.819489, 45.8505199], [4.8193623, 45.8505303], [4.8193027, 45.8506124], [4.8194072, 45.8506554], [4.8193321, 45.8507694], [4.8193483, 45.8508394], [4.8192141, 45.8508104], [4.8191316, 45.8508778], [4.8190934, 45.8508913], [4.819096, 45.8508935], [4.8191404, 45.8508876], [4.8194119, 45.8510552], [4.8196835, 45.8511738], [4.8198229, 45.8511551], [4.8200362, 45.851015], [4.8201971, 45.8508366], [4.8198337, 45.8506694], [4.8195863, 45.8505872], [4.8196393, 45.8505367], [4.8202468, 45.8506488], [4.8206256, 45.8507806], [4.8206826, 45.8505386], [4.8207946, 45.8503901], [4.8209435, 45.8502865], [4.8210112, 45.8500314], [4.8204895, 45.849967], [4.8203923, 45.8498904], [4.8203554, 45.8498642], [4.8202991, 45.8499333], [4.8200643, 45.8499184], [4.8200067, 45.8499389], [4.8200342, 45.850009], [4.8200228, 45.8500977], [4.8199303, 45.8500931], [4.8198578, 45.8502518], [4.8198237, 45.8503584], [4.8197129, 45.8504358], [4.819489, 45.8505199]]]}}, {"type": "Feature", "properties": {"kind": "farmland", "source": "osm", "osmType": "way", "osmId": 163921087, "name": "", "landuse": "farmland"}, "geometry": {"type": "Polygon", "coordinates": [[[4.8177515, 45.8513832], [4.8174372, 45.8517489], [4.8167122, 45.8514969], [4.8167415, 45.8512499], [4.8167935, 45.8512237], [4.8169734, 45.8511333], [4.8169916, 45.8511143], [4.8171043, 45.8509963], [4.8172162, 45.8508792], [4.8172856, 45.8508065], [4.8172923, 45.8507995], [4.817384, 45.8508119], [4.8173816, 45.8511105], [4.8175085, 45.8512205], [4.8177383, 45.8513394], [4.8177515, 45.8513832]]]}}, {"type": "Feature", "properties": {"kind": "farmland", "source": "osm", "osmType": "way", "osmId": 163921088, "name": "", "landuse": "farmland"}, "geometry": {"type": "Polygon", "coordinates": [[[4.8180838, 45.8511352], [4.8184262, 45.8510132], [4.8185324, 45.8509123], [4.8187295, 45.850832], [4.8189647, 45.8507588], [4.8189895, 45.8507815], [4.8190934, 45.8508913], [4.819096, 45.8508935], [4.8194368, 45.8512424], [4.8195634, 45.8514128], [4.8191142, 45.8516615], [4.8183403, 45.8519176], [4.8178449, 45.8517938], [4.8182176, 45.8513595], [4.8180838, 45.8511352]]]}}, {"type": "Feature", "properties": {"kind": "farmland", "source": "osm", "osmType": "way", "osmId": 173619465, "name": "", "landuse": "farmland"}, "geometry": {"type": "Polygon", "coordinates": [[[4.8405585, 45.8844184], [4.8403044, 45.8847512], [4.8405878, 45.8849465], [4.8407959, 45.8850978], [4.8410213, 45.8852167], [4.8409975, 45.8853331], [4.8408507, 45.8853613], [4.8409745, 45.8854753], [4.8411453, 45.8856144], [4.8413143, 45.8857019], [4.8420097, 45.8858339], [4.8415269, 45.8862517], [4.841441, 45.8867073], [4.8414732, 45.887006], [4.8418713, 45.8875224], [4.8422146, 45.8877166], [4.8423203, 45.8879171], [4.8422452, 45.8884772], [4.843479, 45.8888132], [4.8444033, 45.8890085], [4.845047, 45.8891952], [4.8461612, 45.8896795], [4.8462899, 45.8897019], [4.8464096, 45.8896508], [4.8471268, 45.8869313], [4.8473735, 45.8866177], [4.8473628, 45.8865355], [4.8454976, 45.8839451], [4.8453994, 45.8838323], [4.845226, 45.883979], [4.8448213, 45.8847914], [4.8441971, 45.8857871], [4.8432309, 45.8854251], [4.8439402, 45.8843329], [4.8430979, 45.8839867], [4.8423448, 45.885091], [4.8405585, 45.8844184]]]}}, {"type": "Feature", "properties": {"kind": "farmland", "source": "osm", "osmType": "way", "osmId": 173942430, "name": "", "landuse": "farmland"}, "geometry": {"type": "Polygon", "coordinates": [[[4.8413818, 45.8935329], [4.8413013, 45.8933536], [4.841238, 45.892917], [4.8412004, 45.8927788], [4.8411726, 45.8927077], [4.8411296, 45.8923269], [4.8411618, 45.892241], [4.8411565, 45.8921103], [4.84112, 45.8920657], [4.841061, 45.8920358], [4.841025, 45.8919935], [4.8409848, 45.8919461], [4.8408239, 45.891666], [4.8406039, 45.8912329], [4.840502, 45.8909753], [4.8404108, 45.8907886], [4.8403421, 45.890688], [4.8402177, 45.8905384], [4.8401598, 45.8904341], [4.8401329, 45.8903407], [4.8401426, 45.890236], [4.8402284, 45.8901165], [4.8403518, 45.8899261], [4.8403464, 45.8898327], [4.8403089, 45.8896684], [4.8402982, 45.8895228], [4.8403035, 45.8894071], [4.8403518, 45.8892278], [4.8403893, 45.8890449], [4.8403625, 45.8888731], [4.8403572, 45.8887798], [4.8405342, 45.888201], [4.8406522, 45.8877903], [4.8406855, 45.8877701], [4.8411723, 45.8879648], [4.8415491, 45.8882348], [4.84193, 45.888485], [4.8417047, 45.8888098], [4.8420319, 45.8889368], [4.8421607, 45.8887762], [4.8421285, 45.8887016], [4.8421757, 45.8886304], [4.8425512, 45.8886827], [4.8445092, 45.8891718], [4.8449813, 45.8892727], [4.8459844, 45.8897058], [4.8460874, 45.8897508], [4.8458825, 45.8901277], [4.8456626, 45.8905944], [4.8454437, 45.89136], [4.8452066, 45.8922074], [4.8451433, 45.892342], [4.8450403, 45.8924874], [4.8449394, 45.8925922], [4.8447721, 45.8927339], [4.8445682, 45.8929467], [4.8443483, 45.8931707], [4.8439996, 45.8934358], [4.8437582, 45.8936449], [4.8413976, 45.8935592], [4.8413818, 45.8935329]]]}}, {"type": "Feature", "properties": {"kind": "farmland", "source": "osm", "osmType": "way", "osmId": 178318807, "name": "", "landuse": "farmland"}, "geometry": {"type": "Polygon", "coordinates": [[[4.8403492, 45.8641509], [4.8403921, 45.8639137], [4.8423126, 45.8638502], [4.8424138, 45.8638552], [4.8425587, 45.8640569], [4.8413792, 45.8641565], [4.841347, 45.86408], [4.8403492, 45.8641509]]]}}, {"type": "Feature", "properties": {"kind": "vineyard", "source": "osm", "osmType": "way", "osmId": 180155030, "name": "", "landuse": "vineyard"}, "geometry": {"type": "Polygon", "coordinates": [[[4.8021135, 45.8669439], [4.8022494, 45.8669525], [4.8027159, 45.8669516], [4.8034097, 45.8671039], [4.8033856, 45.866876], [4.803289, 45.8668686], [4.8034285, 45.8663904], [4.8022054, 45.866368], [4.8020649, 45.866885], [4.8021135, 45.8669439]]]}}, {"type": "Feature", "properties": {"kind": "vineyard", "source": "osm", "osmType": "way", "osmId": 180155031, "name": "", "landuse": "vineyard"}, "geometry": {"type": "Polygon", "coordinates": [[[4.8033346, 45.864576], [4.8021012, 45.8647187], [4.8022866, 45.8651407], [4.8022092, 45.8651547], [4.802194, 45.8652383], [4.8022698, 45.8660542], [4.803503, 45.866182], [4.8030417, 45.8651062], [4.803525, 45.8650158], [4.8033346, 45.864576]]]}}, {"type": "Feature", "properties": {"kind": "orchard", "source": "osm", "osmType": "way", "osmId": 213211665, "name": "", "landuse": "orchard"}, "geometry": {"type": "Polygon", "coordinates": [[[4.8266941, 45.8704363], [4.8269974, 45.8697655], [4.8268961, 45.8697433], [4.8265927, 45.8704141], [4.8266941, 45.8704363]]]}}, {"type": "Feature", "properties": {"kind": "farmland", "source": "osm", "osmType": "way", "osmId": 219901681, "name": "", "landuse": "farmland"}, "geometry": {"type": "Polygon", "coordinates": [[[4.8406797, 45.8514636], [4.8405245, 45.8511552], [4.8393707, 45.8514813], [4.839263, 45.8518217], [4.8390288, 45.8518301], [4.838682, 45.8513522], [4.8385278, 45.8514215], [4.8384245, 45.851537], [4.8384782, 45.8517163], [4.83856, 45.8517974], [4.8385425, 45.8519032], [4.8386498, 45.8522058], [4.8387886, 45.8525912], [4.8394867, 45.8525159], [4.8398461, 45.8524225], [4.8400339, 45.8521087], [4.8397536, 45.8516935], [4.8406797, 45.8514636]]]}}, {"type": "Feature", "properties": {"kind": "farmland", "source": "osm", "osmType": "way", "osmId": 222907886, "name": "", "landuse": "farmland"}, "geometry": {"type": "Polygon", "coordinates": [[[4.843501, 45.8501089], [4.8452362, 45.8506134], [4.8454417, 45.8505274], [4.8453837, 45.8504267], [4.8453435, 45.8503705], [4.8452603, 45.8503557], [4.8451799, 45.8502885], [4.8451396, 45.8502285], [4.8451262, 45.8501876], [4.8451075, 45.850094], [4.8448312, 45.8498737], [4.8446756, 45.8496981], [4.8444825, 45.8496458], [4.8443779, 45.8496195], [4.8442438, 45.8494625], [4.8442035, 45.8493656], [4.8443752, 45.849317], [4.8439892, 45.8487191], [4.8439463, 45.8485771], [4.8438712, 45.8484501], [4.8437746, 45.8480839], [4.8434474, 45.8473926], [4.8433293, 45.8471049], [4.8433079, 45.8468844], [4.8431252, 45.846712], [4.8428519, 45.8465294], [4.8423691, 45.8461894], [4.8421384, 45.8461109], [4.8420365, 45.8459614], [4.8418327, 45.845939], [4.8417308, 45.8456699], [4.8417576, 45.8453822], [4.8418327, 45.8452626], [4.8415215, 45.8451804], [4.8413657, 45.8451948], [4.8411836, 45.8450534], [4.8411085, 45.8450011], [4.8410495, 45.8450459], [4.8408349, 45.8450235], [4.8407276, 45.8449898], [4.8405935, 45.8450758], [4.8404755, 45.8450608], [4.8404249, 45.8450362], [4.840488, 45.8452769], [4.8406482, 45.846479], [4.8408347, 45.8464837], [4.8411717, 45.8470025], [4.8412955, 45.8472632], [4.8405416, 45.8474875], [4.8406254, 45.8475639], [4.8409905, 45.8478373], [4.8411136, 45.8480123], [4.8412638, 45.8481842], [4.841484, 45.8483454], [4.8416983, 45.8484831], [4.8420094, 45.8487709], [4.8423957, 45.8490436], [4.8426105, 45.8491824], [4.8428785, 45.8489988], [4.8431255, 45.8488835], [4.8439248, 45.8498885], [4.843501, 45.8501089]]]}}, {"type": "Feature", "properties": {"kind": "vineyard", "source": "osm", "osmType": "way", "osmId": 228478924, "name": "", "landuse": "vineyard"}, "geometry": {"type": "Polygon", "coordinates": [[[4.8062933, 45.8573257], [4.806245, 45.8572677], [4.806302, 45.8572351], [4.8063054, 45.8572136], [4.8062135, 45.8570277], [4.8060451, 45.8568788], [4.8057877, 45.8567285], [4.8050299, 45.8571958], [4.8047255, 45.8573635], [4.8052491, 45.8576138], [4.8053446, 45.857566], [4.8053917, 45.8574577], [4.8054721, 45.857395], [4.8057025, 45.8574107], [4.805958, 45.8573684], [4.8061437, 45.8573593], [4.8062981, 45.8573505], [4.8062933, 45.8573257]]]}}, {"type": "Feature", "properties": {"kind": "farmland", "source": "osm", "osmType": "way", "osmId": 228478928, "name": "", "landuse": "farmland"}, "geometry": {"type": "Polygon", "coordinates": [[[4.8162675, 45.8682627], [4.8161145, 45.8682688], [4.8159441, 45.8682682], [4.8157861, 45.8682644], [4.8160467, 45.8678796], [4.8164493, 45.8680029], [4.8164119, 45.8680516], [4.8162675, 45.8682627]]]}}, {"type": "Feature", "properties": {"kind": "orchard", "source": "osm", "osmType": "way", "osmId": 228478930, "name": "", "landuse": "orchard"}, "geometry": {"type": "Polygon", "coordinates": [[[4.8062701, 45.8667828], [4.8062155, 45.8661121], [4.8058806, 45.8661213], [4.8059044, 45.8665155], [4.8058828, 45.8667979], [4.8062701, 45.8667828]]]}}, {"type": "Feature", "properties": {"kind": "farmland", "source": "osm", "osmType": "way", "osmId": 228478942, "name": "", "landuse": "farmland"}, "geometry": {"type": "Polygon", "coordinates": [[[4.8146376, 45.8669152], [4.8148334, 45.8668536], [4.8149032, 45.8667957], [4.8150105, 45.8667023], [4.81563, 45.8671972], [4.815896, 45.8673539], [4.8157802, 45.8675185], [4.8158688, 45.8675988], [4.8158473, 45.8676455], [4.8156515, 45.8676306], [4.815035, 45.8672363], [4.814871, 45.8671412], [4.8148281, 45.8671655], [4.8147453, 45.867113], [4.8147503, 45.867046], [4.8146376, 45.8669152]]]}}, {"type": "Feature", "properties": {"kind": "vineyard", "source": "osm", "osmType": "way", "osmId": 228479665, "name": "", "landuse": "vineyard"}, "geometry": {"type": "Polygon", "coordinates": [[[4.8058266, 45.8635738], [4.8057756, 45.8634916], [4.8056442, 45.8633235], [4.8055427, 45.8632524], [4.8052097, 45.8634804], [4.8048771, 45.8632787], [4.8045177, 45.8635589], [4.8047403, 45.8636485], [4.8046169, 45.8637307], [4.8043132, 45.8639684], [4.8044465, 45.864109], [4.8049776, 45.8637672], [4.8050277, 45.8637249], [4.8054944, 45.8638669], [4.8056469, 45.8637345], [4.8058266, 45.8635738]]]}}, {"type": "Feature", "properties": {"kind": "farmland", "source": "osm", "osmType": "way", "osmId": 228481532, "name": "", "landuse": "farmland"}, "geometry": {"type": "Polygon", "coordinates": [[[4.8065879, 45.8617548], [4.8063728, 45.8617656], [4.8053733, 45.8618685], [4.8052601, 45.8614631], [4.8052074, 45.8612743], [4.8051967, 45.8611006], [4.8051135, 45.8609362], [4.8050169, 45.8607457], [4.8050031, 45.8606749], [4.804797, 45.8603927], [4.8047568, 45.8603198], [4.8047778, 45.8601743], [4.8047886, 45.8600155], [4.8046625, 45.8597578], [4.8049491, 45.8596925], [4.8054837, 45.8595708], [4.8053572, 45.8593655], [4.8055798, 45.8593057], [4.8063308, 45.8591376], [4.8064435, 45.8592105], [4.8064918, 45.8594533], [4.8065592, 45.8596885], [4.806983, 45.8602544], [4.8065213, 45.8603181], [4.8055959, 45.8604358], [4.8056281, 45.8606058], [4.8070899, 45.8603985], [4.8072432, 45.8604039], [4.8078971, 45.8599912], [4.8080636, 45.8603515], [4.8081516, 45.860721], [4.8082108, 45.8609536], [4.8079859, 45.8610476], [4.8076044, 45.8612375], [4.8076918, 45.8612411], [4.8080017, 45.8611353], [4.8080845, 45.8615132], [4.8081796, 45.8615971], [4.8080374, 45.8618373], [4.8079876, 45.8620357], [4.8075783, 45.8619742], [4.8075881, 45.8615569], [4.807576, 45.8613058], [4.8074419, 45.8613555], [4.8074158, 45.8614584], [4.8074741, 45.8617402], [4.8074121, 45.8619231], [4.8073651, 45.8619825], [4.807004, 45.8618862], [4.8065879, 45.8617548]]]}}, {"type": "Feature", "properties": {"kind": "vineyard", "source": "osm", "osmType": "way", "osmId": 228481533, "name": "", "landuse": "vineyard"}, "geometry": {"type": "Polygon", "coordinates": [[[4.8065944, 45.8594411], [4.8066477, 45.859681], [4.8069374, 45.860077], [4.8072432, 45.8604039], [4.8078971, 45.8599912], [4.8080442, 45.8599314], [4.8076478, 45.8597094], [4.8074499, 45.8597084], [4.8071863, 45.8595681], [4.80669, 45.859339], [4.8065642, 45.8593463], [4.8065944, 45.8594411]]]}}, {"type": "Feature", "properties": {"kind": "farmland", "source": "osm", "osmType": "way", "osmId": 228481536, "name": "", "landuse": "farmland"}, "geometry": {"type": "Polygon", "coordinates": [[[4.8052123, 45.8630359], [4.8048771, 45.8632787], [4.8052097, 45.8634804], [4.8055427, 45.8632524], [4.8052123, 45.8630359]]]}}, {"type": "Feature", "properties": {"kind": "farmland", "source": "osm", "osmType": "way", "osmId": 228481537, "name": "", "landuse": "farmland"}, "geometry": {"type": "Polygon", "coordinates": [[[4.8063728, 45.8617656], [4.8065879, 45.8617548], [4.8065391, 45.8617822], [4.807004, 45.8619357], [4.8073937, 45.8620503], [4.8073655, 45.8621793], [4.8074229, 45.8622568], [4.8077256, 45.862297], [4.807711, 45.8624273], [4.8081209, 45.862711], [4.8079348, 45.86295], [4.8077984, 45.8631627], [4.8076719, 45.8633179], [4.8075995, 45.8634337], [4.8073501, 45.8636261], [4.8072137, 45.8636894], [4.8070872, 45.8636803], [4.8070071, 45.8636502], [4.8067975, 45.8634674], [4.8061676, 45.8637417], [4.8059902, 45.863656], [4.8059446, 45.8636074], [4.8060277, 45.8635495], [4.8058883, 45.8634057], [4.8057921, 45.8634018], [4.8056549, 45.8632395], [4.805612, 45.8631965], [4.8056764, 45.863176], [4.8056039, 45.8630901], [4.8053371, 45.8630107], [4.8056079, 45.8626128], [4.8059691, 45.8622605], [4.8060217, 45.8621594], [4.8063728, 45.8617656]]]}}, {"type": "Feature", "properties": {"kind": "farmland", "source": "osm", "osmType": "way", "osmId": 228653383, "name": "", "landuse": "farmland"}, "geometry": {"type": "Polygon", "coordinates": [[[4.8144026, 45.8662374], [4.8148114, 45.8665767], [4.8146456, 45.86665], [4.8144739, 45.8667229], [4.8144573, 45.8666795], [4.8143527, 45.8665823], [4.8141864, 45.8664815], [4.8140555, 45.866439], [4.8144026, 45.8662374]]]}}, {"type": "Feature", "properties": {"kind": "farmland", "source": "osm", "osmType": "way", "osmId": 228654898, "name": "", "landuse": "farmland"}, "geometry": {"type": "Polygon", "coordinates": [[[4.8138811, 45.8669171], [4.8140635, 45.8668778], [4.8142165, 45.866807], [4.814305, 45.8667734], [4.8143935, 45.866777], [4.8143023, 45.8667154], [4.8142674, 45.8666426], [4.8142111, 45.8665996], [4.8141145, 45.8665492], [4.8140233, 45.8665249], [4.8139268, 45.8664894], [4.8138919, 45.8664577], [4.8138007, 45.8664409], [4.8136183, 45.8664483], [4.8133581, 45.8665903], [4.81357, 45.866736], [4.8138811, 45.8669171]]]}}, {"type": "Feature", "properties": {"kind": "vineyard", "source": "osm", "osmType": "way", "osmId": 228662317, "name": "", "landuse": "vineyard"}, "geometry": {"type": "Polygon", "coordinates": [[[4.8054813, 45.8652023], [4.8061832, 45.864773], [4.8064864, 45.8649789], [4.8065696, 45.8650162], [4.8063603, 45.8650942], [4.8060893, 45.8651951], [4.8059473, 45.8652516], [4.8058775, 45.8652567], [4.8056736, 45.8652119], [4.8055717, 45.8652044], [4.8054813, 45.8652023]]]}}, {"type": "Feature", "properties": {"kind": "vineyard", "source": "osm", "osmType": "way", "osmId": 228662321, "name": "", "landuse": "vineyard"}, "geometry": {"type": "Polygon", "coordinates": [[[4.802093, 45.8644144], [4.8020625, 45.8642868], [4.8020259, 45.8641417], [4.802549, 45.8640472], [4.8027099, 45.8643247], [4.802093, 45.8644144]]]}}, {"type": "Feature", "properties": {"kind": "orchard", "source": "osm", "osmType": "way", "osmId": 228662323, "name": "", "landuse": "orchard"}, "geometry": {"type": "Polygon", "coordinates": [[[4.800495, 45.8636691], [4.8000679, 45.8635514], [4.8002865, 45.8630802], [4.800428, 45.8631069], [4.8005842, 45.8631208], [4.8007781, 45.8631228], [4.800495, 45.8636691]]]}}, {"type": "Feature", "properties": {"kind": "vineyard", "source": "osm", "osmType": "way", "osmId": 228923181, "name": "", "landuse": "vineyard"}, "geometry": {"type": "Polygon", "coordinates": [[[4.8061514, 45.8637604], [4.8061676, 45.8637417], [4.8067975, 45.8634674], [4.8070071, 45.8636502], [4.8070872, 45.8636803], [4.8072137, 45.8636894], [4.8072298, 45.863921], [4.8072481, 45.8639922], [4.8069048, 45.8640053], [4.8067237, 45.8639987], [4.8065431, 45.8639677], [4.8062852, 45.8638633], [4.8061377, 45.8637774], [4.8061514, 45.8637604]]]}}, {"type": "Feature", "properties": {"kind": "vineyard", "source": "osm", "osmType": "way", "osmId": 228923182, "name": "", "landuse": "vineyard"}, "geometry": {"type": "Polygon", "coordinates": [[[4.8061419, 45.8647435], [4.8061832, 45.864773], [4.8064864, 45.8649789], [4.8065696, 45.8650162], [4.8073836, 45.864875], [4.807566, 45.8647069], [4.8075851, 45.8645626], [4.8076723, 45.864373], [4.8077689, 45.8642255], [4.8076934, 45.864108], [4.8075378, 45.8640912], [4.807283, 45.8641398], [4.8068565, 45.8642294], [4.8065347, 45.8641566], [4.8064332, 45.864106], [4.8063581, 45.8641405], [4.8058507, 45.864475], [4.8061419, 45.8647435]]]}}, {"type": "Feature", "properties": {"kind": "farmland", "source": "osm", "osmType": "way", "osmId": 228957286, "name": "", "landuse": "farmland"}, "geometry": {"type": "Polygon", "coordinates": [[[4.8050136, 45.8647146], [4.8050199, 45.8646772], [4.8049535, 45.8645082], [4.8050165, 45.8644592], [4.8048651, 45.8642964], [4.8049633, 45.864218], [4.8052101, 45.8640835], [4.805509, 45.8639489], [4.8055816, 45.8639789], [4.8056231, 45.8640359], [4.8056701, 45.864148], [4.8052444, 45.8643545], [4.8056225, 45.8646215], [4.8052786, 45.8649312], [4.8049928, 45.8647432], [4.8050136, 45.8647146]]]}}, {"type": "Feature", "properties": {"kind": "farmland", "source": "osm", "osmType": "way", "osmId": 229173395, "name": "", "landuse": "farmland"}, "geometry": {"type": "Polygon", "coordinates": [[[4.8036096, 45.8592899], [4.8032282, 45.8594349], [4.8028975, 45.8595551], [4.803075, 45.8598304], [4.8031045, 45.8598622], [4.803244, 45.8601162], [4.8033862, 45.8601779], [4.80354, 45.8603084], [4.8036879, 45.8602483], [4.8037643, 45.8602189], [4.8037411, 45.8601829], [4.8035296, 45.8598934], [4.8039523, 45.8597447], [4.8038984, 45.8596756], [4.8036096, 45.8592899]]]}}, {"type": "Feature", "properties": {"kind": "farmland", "source": "osm", "osmType": "way", "osmId": 229173397, "name": "", "landuse": "farmland"}, "geometry": {"type": "Polygon", "coordinates": [[[4.8029221, 45.8581396], [4.8032791, 45.8579604], [4.8036405, 45.8578008], [4.8038582, 45.8580654], [4.803143, 45.8583946], [4.8030884, 45.8583965], [4.8029221, 45.8581396]]]}}, {"type": "Feature", "properties": {"kind": "farmland", "source": "osm", "osmType": "way", "osmId": 229508739, "name": "", "landuse": "farmland"}, "geometry": {"type": "Polygon", "coordinates": [[[4.808565, 45.8571959], [4.8086064, 45.857244], [4.8086629, 45.8572706], [4.8087326, 45.8574051], [4.8085865, 45.857447], [4.808388, 45.8574891], [4.8082001, 45.8575148], [4.8081467, 45.8574284], [4.808091, 45.857328], [4.808565, 45.8571959]]]}}, {"type": "Feature", "properties": {"kind": "farmland", "source": "osm", "osmType": "way", "osmId": 229563298, "name": "", "landuse": "farmland"}, "geometry": {"type": "Polygon", "coordinates": [[[4.802117, 45.8497278], [4.8023289, 45.8498642], [4.8020206, 45.8501103], [4.8017981, 45.8499978], [4.802117, 45.8497278]]]}}, {"type": "Feature", "properties": {"kind": "farmland", "source": "osm", "osmType": "way", "osmId": 229563300, "name": "", "landuse": "farmland"}, "geometry": {"type": "Polygon", "coordinates": [[[4.8023536, 45.850481], [4.8023502, 45.8506905], [4.802392, 45.8509064], [4.8024939, 45.851142], [4.8021518, 45.8513769], [4.8016994, 45.8510277], [4.8011003, 45.8506752], [4.8012196, 45.8505496], [4.8014992, 45.8502482], [4.8016122, 45.8501406], [4.8016618, 45.8501616], [4.8022991, 45.8504421], [4.8023536, 45.850481]]]}}, {"type": "Feature", "properties": {"kind": "farmland", "source": "osm", "osmType": "way", "osmId": 229668605, "name": "", "landuse": "farmland"}, "geometry": {"type": "Polygon", "coordinates": [[[4.8015612, 45.8573653], [4.8014835, 45.857454], [4.8012621, 45.8573628], [4.8013801, 45.857291], [4.8013986, 45.8572976], [4.8015612, 45.8573653]]]}}, {"type": "Feature", "properties": {"kind": "farmland", "source": "osm", "osmType": "way", "osmId": 229668608, "name": "", "landuse": "farmland"}, "geometry": {"type": "Polygon", "coordinates": [[[4.8045593, 45.8586389], [4.8046026, 45.858589], [4.8047128, 45.8584282], [4.8047617, 45.8585202], [4.8047389, 45.8586402], [4.8047111, 45.8588429], [4.8045451, 45.8588803], [4.8044204, 45.8588259], [4.8044648, 45.8587407], [4.8044475, 45.8587124], [4.8044828, 45.8586182], [4.8045593, 45.8586389]]]}}, {"type": "Feature", "properties": {"kind": "farmland", "source": "osm", "osmType": "way", "osmId": 229669586, "name": "", "landuse": "farmland"}, "geometry": {"type": "Polygon", "coordinates": [[[4.8053615, 45.8583579], [4.8055682, 45.8583782], [4.8053046, 45.8586235], [4.8051642, 45.8587525], [4.8047111, 45.8588429], [4.8047389, 45.8586402], [4.8047617, 45.8585202], [4.8049461, 45.8583211], [4.8053615, 45.8583579]]]}}, {"type": "Feature", "properties": {"kind": "farmland", "source": "osm", "osmType": "way", "osmId": 230003444, "name": "", "landuse": "farmland"}, "geometry": {"type": "Polygon", "coordinates": [[[4.8165106, 45.8481632], [4.8165715, 45.8478063], [4.8166984, 45.8475167], [4.8162585, 45.8474121], [4.8161029, 45.8477241], [4.8161168, 45.8478156], [4.8161365, 45.8480669], [4.8163966, 45.8481444], [4.8165106, 45.8481632]]]}}, {"type": "Feature", "properties": {"kind": "farmland", "source": "osm", "osmType": "way", "osmId": 230699256, "name": "", "landuse": "farmland"}, "geometry": {"type": "Polygon", "coordinates": [[[4.8016797, 45.8720531], [4.8018712, 45.872113], [4.8017063, 45.8722402], [4.8012836, 45.8722899], [4.8010502, 45.872348], [4.800811, 45.8725347], [4.8004083, 45.8727142], [4.8005518, 45.8729158], [4.8001822, 45.8730471], [4.7999585, 45.8727409], [4.7998375, 45.8725136], [4.7991442, 45.872409], [4.7991082, 45.8721147], [4.7987908, 45.8717286], [4.7993891, 45.8715638], [4.7990779, 45.8712911], [4.7984286, 45.8715109], [4.7983033, 45.8712973], [4.7980917, 45.8712345], [4.7978776, 45.8710225], [4.7976005, 45.8711327], [4.7972768, 45.8707812], [4.7969583, 45.8703473], [4.7971279, 45.8702807], [4.7969939, 45.8701556], [4.7968319, 45.8697195], [4.7973707, 45.8692928], [4.7966679, 45.8686466], [4.7972218, 45.8684038], [4.7977851, 45.8682245], [4.7986809, 45.8692965], [4.7997163, 45.8705665], [4.7997816, 45.8706514], [4.7998169, 45.8706972], [4.8000918, 45.8706412], [4.8002152, 45.870559], [4.8003171, 45.8705179], [4.8010467, 45.8718812], [4.8016797, 45.8720531]]]}}, {"type": "Feature", "properties": {"kind": "orchard", "source": "osm", "osmType": "way", "osmId": 234888434, "name": "", "landuse": "orchard"}, "geometry": {"type": "Polygon", "coordinates": [[[4.8006393, 45.8746095], [4.8007653, 45.8741631], [4.8006527, 45.8739222], [4.8005721, 45.8737477], [4.8004729, 45.8737645], [4.8004626, 45.8745989], [4.8005642, 45.8746057], [4.8006393, 45.8746095]]]}}, {"type": "Feature", "properties": {"kind": "farmland", "source": "osm", "osmType": "way", "osmId": 234888435, "name": "", "landuse": "farmland"}, "geometry": {"type": "Polygon", "coordinates": [[[4.799392, 45.8743966], [4.7988127, 45.8740081], [4.7987993, 45.8740492], [4.798907, 45.8745466], [4.7989226, 45.8747757], [4.798869, 45.8750408], [4.7987949, 45.8751872], [4.7987403, 45.8753097], [4.7989495, 45.8755674], [4.7990728, 45.8757672], [4.7991265, 45.8758307], [4.799333, 45.8758121], [4.7995261, 45.8757859], [4.7995583, 45.8754012], [4.8008301, 45.8754391], [4.8008119, 45.8752006], [4.8001428, 45.8751904], [4.7996173, 45.8752], [4.7996871, 45.8745385], [4.7995158, 45.8744682], [4.799392, 45.8743966]]]}}, {"type": "Feature", "properties": {"kind": "farmland", "source": "osm", "osmType": "way", "osmId": 234888444, "name": "", "landuse": "farmland"}, "geometry": {"type": "Polygon", "coordinates": [[[4.8075567, 45.8725142], [4.8075647, 45.8727253], [4.8075544, 45.8728173], [4.8075061, 45.8728341], [4.806642, 45.8728691], [4.8065776, 45.8728493], [4.8065405, 45.8728379], [4.8061756, 45.8728057], [4.8059717, 45.8727871], [4.8059127, 45.8731886], [4.8053924, 45.8731736], [4.8050276, 45.8731475], [4.8049451, 45.873173], [4.8048852, 45.8731342], [4.8046894, 45.8730465], [4.8045336, 45.872998], [4.8044859, 45.872935], [4.8039924, 45.8727501], [4.8041932, 45.8721109], [4.8044534, 45.8720324], [4.8046049, 45.8714507], [4.8043906, 45.8713909], [4.80462, 45.8708484], [4.8057147, 45.8709586], [4.8058486, 45.8710357], [4.8059675, 45.8711042], [4.8058407, 45.8715229], [4.8062433, 45.8716437], [4.8064326, 45.8712559], [4.8065498, 45.8712672], [4.8063782, 45.8717872], [4.8062207, 45.8719859], [4.8063983, 45.8721209], [4.806744, 45.8721411], [4.8068677, 45.8720608], [4.8070616, 45.872072], [4.8071563, 45.8722569], [4.8073011, 45.8721963], [4.8075656, 45.8722604], [4.8075567, 45.8725142]]]}}, {"type": "Feature", "properties": {"kind": "orchard", "source": "osm", "osmType": "way", "osmId": 235828858, "name": "", "landuse": "orchard"}, "geometry": {"type": "Polygon", "coordinates": [[[4.7998853, 45.8768056], [4.80018, 45.8767598], [4.8002631, 45.8767393], [4.8003882, 45.8769936], [4.8003198, 45.87718], [4.7999699, 45.8772433], [4.7998853, 45.8768056]]]}}, {"type": "Feature", "properties": {"kind": "orchard", "source": "osm", "osmType": "way", "osmId": 235828860, "name": "", "landuse": "orchard"}, "geometry": {"type": "Polygon", "coordinates": [[[4.7997271, 45.875799], [4.7995261, 45.8757859], [4.7995583, 45.8754012], [4.8008301, 45.8754391], [4.800829, 45.875671], [4.8008384, 45.8759308], [4.8001034, 45.8759374], [4.8000962, 45.8761069], [4.7997306, 45.8760847], [4.7997271, 45.875799]]]}}, {"type": "Feature", "properties": {"kind": "farmland", "source": "osm", "osmType": "way", "osmId": 237523813, "name": "", "landuse": "farmland"}, "geometry": {"type": "Polygon", "coordinates": [[[4.7959688, 45.8441127], [4.7945551, 45.8445026], [4.7940406, 45.8446445], [4.7940013, 45.8446553], [4.7941327, 45.8447562], [4.7942554, 45.8448384], [4.794409, 45.8449001], [4.7946235, 45.8449711], [4.7948189, 45.8450495], [4.7949691, 45.8449972], [4.7950979, 45.8450906], [4.7951891, 45.8451691], [4.7952695, 45.8451952], [4.795468, 45.8452177], [4.7956075, 45.8452625], [4.7957791, 45.8453298], [4.7959454, 45.8454531], [4.796337, 45.8457894], [4.7968145, 45.8461818], [4.7969206, 45.8463393], [4.7972737, 45.8466918], [4.7973989, 45.8468058], [4.7975169, 45.8469478], [4.7977157, 45.8470524], [4.7987135, 45.8465704], [4.7988261, 45.8465891], [4.7987778, 45.8466563], [4.797753, 45.8471384], [4.797876, 45.8472759], [4.7980589, 45.8474113], [4.7982783, 45.8475262], [4.7986275, 45.8477103], [4.7987188, 45.8476764], [4.7988448, 45.8477736], [4.7987563, 45.8478278], [4.7989307, 45.8480015], [4.7990004, 45.8480333], [4.7990298, 45.8480391], [4.7990906, 45.8480072], [4.7991908, 45.847998], [4.7996253, 45.8477813], [4.799845, 45.8479942], [4.8008588, 45.847494], [4.7994932, 45.8462688], [4.7997963, 45.8461212], [4.7992445, 45.8457763], [4.7990792, 45.845853], [4.7982755, 45.8454206], [4.7977439, 45.8451052], [4.7975173, 45.8449224], [4.7969237, 45.8443481], [4.7968574, 45.8442946], [4.7961869, 45.8444591], [4.7959688, 45.8441127]]]}}, {"type": "Feature", "properties": {"kind": "orchard", "source": "osm", "osmType": "way", "osmId": 238028174, "name": "", "landuse": "orchard"}, "geometry": {"type": "Polygon", "coordinates": [[[4.7984611, 45.8862461], [4.7985657, 45.885983], [4.7994455, 45.8860427], [4.7993677, 45.8862816], [4.7984611, 45.8862461]]]}}, {"type": "Feature", "properties": {"kind": "farmland", "source": "osm", "osmType": "way", "osmId": 238122477, "name": "", "landuse": "farmland"}, "geometry": {"type": "Polygon", "coordinates": [[[4.7988984, 45.8882588], [4.7990013, 45.8877158], [4.7992015, 45.8870621], [4.7992036, 45.8870435], [4.7992614, 45.8865304], [4.7993677, 45.8862816], [4.7984611, 45.8862461], [4.7985657, 45.885983], [4.7994455, 45.8860427], [4.799998, 45.8852716], [4.7986864, 45.8851932], [4.798569, 45.8851515], [4.7982546, 45.8850868], [4.7982546, 45.8850345], [4.798263, 45.884652], [4.7982922, 45.8841047], [4.7983546, 45.8838398], [4.7982868, 45.883834], [4.7981527, 45.8838377], [4.7973775, 45.8838974], [4.7974393, 45.8842298], [4.7959596, 45.8843701], [4.7955197, 45.8837969], [4.7965578, 45.883345], [4.7949243, 45.8827519], [4.7939024, 45.882432], [4.7942511, 45.8834925], [4.7938997, 45.8835149], [4.7938595, 45.8833992], [4.7934652, 45.8834048], [4.7931835, 45.883963], [4.7932345, 45.8840452], [4.7933016, 45.8840807], [4.7938005, 45.8841068], [4.7939185, 45.8841497], [4.793948, 45.8842207], [4.7939319, 45.8847267], [4.7940043, 45.88527], [4.7941438, 45.8858619], [4.7942993, 45.8863865], [4.7943879, 45.886745], [4.794463, 45.8872565], [4.7945273, 45.8877644], [4.794589, 45.8882778], [4.7946802, 45.8888677], [4.7947741, 45.8896631], [4.7948009, 45.8902343], [4.7948331, 45.8905891], [4.7948975, 45.8907832], [4.795045, 45.8912145], [4.7952059, 45.8917764], [4.7953132, 45.8920004], [4.7953374, 45.8920033], [4.797444, 45.8913734], [4.7976591, 45.8914137], [4.7980696, 45.8913675], [4.7982525, 45.8913469], [4.798106, 45.8912173], [4.797646, 45.8909765], [4.7976211, 45.8909634], [4.7973201, 45.8910164], [4.7970846, 45.8907536], [4.7968025, 45.8906561], [4.7963824, 45.8906505], [4.7963025, 45.8903246], [4.7965074, 45.890195], [4.7966693, 45.8900526], [4.7964463, 45.8895337], [4.7962419, 45.8891432], [4.7966238, 45.8890401], [4.7969532, 45.8890722], [4.797311, 45.8890233], [4.7973813, 45.8887455], [4.7975687, 45.8886336], [4.7976613, 45.8884158], [4.7977691, 45.8880917], [4.79773, 45.8877187], [4.797517, 45.88725], [4.7973496, 45.8871496], [4.7972112, 45.8867355], [4.7971295, 45.8866006], [4.7970191, 45.8864827], [4.7969515, 45.8863751], [4.796906, 45.8862553], [4.7968386, 45.8860557], [4.7968155, 45.8859197], [4.7968041, 45.8858648], [4.7968921, 45.8858558], [4.7969085, 45.8859452], [4.796935, 45.8861107], [4.7969915, 45.8862962], [4.7970891, 45.886423], [4.7972192, 45.886555], [4.7973209, 45.8867236], [4.797554, 45.8871014], [4.7980803, 45.8871668], [4.7981393, 45.8872788], [4.7981822, 45.8874058], [4.7982997, 45.8875756], [4.7983318, 45.8878482], [4.7984504, 45.8878837], [4.7984606, 45.8880797], [4.7988045, 45.8881003], [4.7987918, 45.8882497], [4.7988984, 45.8882588]]]}}, {"type": "Feature", "properties": {"kind": "farmland", "source": "osm", "osmType": "way", "osmId": 297488252, "name": "", "landuse": "farmland"}, "geometry": {"type": "Polygon", "coordinates": [[[4.8282887, 45.863945], [4.8283095, 45.8639515], [4.8283732, 45.863855], [4.8273104, 45.8635093], [4.8272869, 45.8636184], [4.8277221, 45.863758], [4.8277838, 45.8637769], [4.8280614, 45.8638698], [4.8282887, 45.863945]]]}}, {"type": "Feature", "properties": {"kind": "farmland", "source": "osm", "osmType": "way", "osmId": 307273687, "name": "", "landuse": "farmland"}, "geometry": {"type": "Polygon", "coordinates": [[[4.8324689, 45.8690294], [4.8327451, 45.8691956], [4.8331893, 45.8691952], [4.833181, 45.8689933], [4.8330343, 45.8689942], [4.8324689, 45.8689958], [4.8324689, 45.8690294]]]}}, {"type": "Feature", "properties": {"kind": "orchard", "source": "osm", "osmType": "way", "osmId": 321112316, "name": "", "landuse": "orchard"}, "geometry": {"type": "Polygon", "coordinates": [[[4.8241068, 45.8752373], [4.8239126, 45.8751231], [4.8241014, 45.8750019], [4.824324, 45.8751345], [4.8241305, 45.8752521], [4.8241068, 45.8752373]]]}}, {"type": "Feature", "properties": {"kind": "farmland", "source": "osm", "osmType": "way", "osmId": 337459923, "name": "", "landuse": "farmland"}, "geometry": {"type": "Polygon", "coordinates": [[[4.8208438, 45.8734918], [4.8204734, 45.8736686], [4.8205685, 45.8737579], [4.8207666, 45.8736534], [4.8209573, 45.8738262], [4.8211032, 45.8737482], [4.8208438, 45.8734918]]]}}, {"type": "Feature", "properties": {"kind": "farmland", "source": "osm", "osmType": "way", "osmId": 451679313, "name": "", "landuse": "farmland"}, "geometry": {"type": "Polygon", "coordinates": [[[4.8268779, 45.8694178], [4.8273329, 45.8694915], [4.8273775, 45.8693642], [4.8283247, 45.8694325], [4.8282753, 45.8698623], [4.828289, 45.8699074], [4.8281178, 45.8698881], [4.8280081, 45.870093], [4.8274957, 45.8710157], [4.8274388, 45.8711131], [4.8279727, 45.871363], [4.8282448, 45.871489], [4.8281961, 45.8715562], [4.828129, 45.871614], [4.8273887, 45.8712723], [4.8272738, 45.8713802], [4.8279761, 45.8717186], [4.8278716, 45.8717682], [4.8277351, 45.8718322], [4.8266918, 45.8712887], [4.826563, 45.8714269], [4.8274991, 45.8719536], [4.8267115, 45.8723489], [4.8263159, 45.8720865], [4.8259226, 45.8722729], [4.8260417, 45.8723634], [4.826276, 45.8725493], [4.8253426, 45.8729191], [4.8250637, 45.8726819], [4.8251942, 45.8726193], [4.8256591, 45.8723962], [4.82517, 45.8720592], [4.8250955, 45.8720037], [4.8249929, 45.8718064], [4.8246448, 45.8715687], [4.8245101, 45.8714831], [4.8243599, 45.871336], [4.8245162, 45.8712611], [4.82478, 45.8711321], [4.8249246, 45.8710557], [4.8251245, 45.8709506], [4.8252756, 45.8708555], [4.8254919, 45.8706788], [4.8256447, 45.8705416], [4.8257637, 45.8704035], [4.8259944, 45.8700318], [4.8262599, 45.8696621], [4.8264568, 45.8692479], [4.8265469, 45.8690341], [4.8266874, 45.8687149], [4.826952, 45.8687526], [4.827102, 45.8687738], [4.8268779, 45.8694178]]]}}, {"type": "Feature", "properties": {"kind": "orchard", "source": "osm", "osmType": "way", "osmId": 475594757, "name": "", "landuse": "orchard"}, "geometry": {"type": "Polygon", "coordinates": [[[4.8392477, 45.8915903], [4.8390066, 45.8916729], [4.8387759, 45.8917663], [4.8388028, 45.8918783], [4.8393446, 45.8918298], [4.8392477, 45.8915903]]]}}, {"type": "Feature", "properties": {"kind": "farmland", "source": "osm", "osmType": "way", "osmId": 615465561, "name": "", "landuse": "farmland"}, "geometry": {"type": "Polygon", "coordinates": [[[4.8285274, 45.8738285], [4.8282529, 45.8736909], [4.8279131, 45.8735254], [4.8280325, 45.8734246], [4.8277038, 45.8732637], [4.8275708, 45.8731984], [4.82703, 45.8729361], [4.826309, 45.872575], [4.8279131, 45.8718026], [4.8284946, 45.8721059], [4.8285108, 45.8721157], [4.8284977, 45.8721928], [4.8284544, 45.8724175], [4.8288623, 45.8726291], [4.8287168, 45.8727907], [4.8284381, 45.8726561], [4.8284081, 45.8727243], [4.828504, 45.8727748], [4.8282759, 45.8730437], [4.8286001, 45.8731952], [4.828634, 45.8732122], [4.8287341, 45.8732584], [4.8288652, 45.8733181], [4.8289261, 45.8733515], [4.8287255, 45.8735914], [4.8285274, 45.8738285]]]}}, {"type": "Feature", "properties": {"kind": "farmland", "source": "osm", "osmType": "way", "osmId": 806878168, "name": "", "landuse": "farmland"}, "geometry": {"type": "Polygon", "coordinates": [[[4.8273458, 45.8683048], [4.8277353, 45.8682613], [4.8279387, 45.8682375], [4.8281585, 45.8682114], [4.8281187, 45.8685639], [4.8276666, 45.8685567], [4.8273034, 45.8685516], [4.8273458, 45.8683048]]]}}, {"type": "Feature", "properties": {"kind": "farmland", "source": "osm", "osmType": "way", "osmId": 808897298, "name": "", "landuse": "farmland"}, "geometry": {"type": "Polygon", "coordinates": [[[4.8066136, 45.8561474], [4.8066506, 45.8561184], [4.8067202, 45.856061], [4.8067828, 45.856067], [4.8068807, 45.8561226], [4.8070141, 45.8561618], [4.8073105, 45.8563215], [4.8072743, 45.8563542], [4.8071333, 45.8564505], [4.8066136, 45.8561474]]]}}, {"type": "Feature", "properties": {"kind": "farmland", "source": "osm", "osmType": "way", "osmId": 813372948, "name": "", "landuse": "farmland"}, "geometry": {"type": "Polygon", "coordinates": [[[4.8027742, 45.8617461], [4.8031712, 45.8619338], [4.8036933, 45.8621093], [4.8040406, 45.8621317], [4.8040724, 45.862074], [4.8039839, 45.8617209], [4.803823, 45.8613828], [4.8033911, 45.8613828], [4.8032275, 45.8613735], [4.8032574, 45.861251], [4.8030992, 45.8608304], [4.8020299, 45.8609396], [4.8020899, 45.8613929], [4.8021916, 45.8621201], [4.8028332, 45.8621337], [4.8027742, 45.8617461]]]}}, {"type": "Feature", "properties": {"kind": "vineyard", "source": "osm", "osmType": "way", "osmId": 1469728347, "name": "Vinea in Transitione", "landuse": "vineyard"}, "geometry": {"type": "Polygon", "coordinates": [[[4.804059, 45.8864736], [4.8041736, 45.8864575], [4.804151, 45.8863793], [4.8040364, 45.8863954], [4.804059, 45.8864736]]]}}, {"type": "Feature", "properties": {"kind": "farmland", "source": "osm", "osmType": "relation", "osmId": 6992485, "name": "", "landuse": "farmland"}, "geometry": {"type": "Polygon", "coordinates": [[[4.8409966, 45.8927902], [4.8410866, 45.8926853], [4.8409902, 45.8922672], [4.8409108, 45.8920969], [4.8408893, 45.8920508], [4.8408518, 45.8919724], [4.8408518, 45.8919201], [4.840738, 45.8917407], [4.840664, 45.8915654], [4.8406586, 45.8915019], [4.8405353, 45.8912107], [4.8404816, 45.8910763], [4.8404215, 45.8909342], [4.8403625, 45.8908185], [4.8402402, 45.8906544], [4.840105, 45.8904638], [4.840046, 45.8904525], [4.8399763, 45.8903965], [4.8399763, 45.8902808], [4.8399924, 45.8902173], [4.8400138, 45.89018], [4.8400353, 45.8901501], [4.8400943, 45.8901352], [4.8401319, 45.8901314], [4.840208, 45.889986], [4.8401801, 45.8899298], [4.840164, 45.8896983], [4.8401748, 45.8896348], [4.8401587, 45.889493], [4.8400739, 45.8895193], [4.8399709, 45.8894705], [4.8399226, 45.8894332], [4.8398583, 45.8893772], [4.8397563, 45.8893623], [4.8397189, 45.8894182], [4.8397297, 45.8894929], [4.8381525, 45.8893734], [4.8381803, 45.889635], [4.8384154, 45.8897804], [4.8377556, 45.8898327], [4.8373479, 45.8896273], [4.8366008, 45.8895123], [4.8364348, 45.8896799], [4.8365215, 45.8897764], [4.8368444, 45.8898049], [4.8369968, 45.8898183], [4.8374892, 45.8902408], [4.8377996, 45.8906468], [4.8369284, 45.8909177], [4.8371144, 45.891106], [4.8374078, 45.8912368], [4.8376906, 45.8913399], [4.8379807, 45.8913719], [4.838429, 45.8913158], [4.8383951, 45.8912734], [4.8385721, 45.8912212], [4.8385721, 45.8913406], [4.8385131, 45.8914489], [4.838556, 45.8919269], [4.8395003, 45.8920103], [4.840137, 45.892087], [4.8406667, 45.8923505], [4.8408463, 45.8925443], [4.8409966, 45.8927902]], [[4.8392477, 45.8915903], [4.8390066, 45.8916729], [4.8387759, 45.8917663], [4.8388028, 45.8918783], [4.8393446, 45.8918298], [4.8392477, 45.8915903]], [[4.8395055, 45.8917962], [4.8393929, 45.8915497], [4.8392477, 45.8915903], [4.8393446, 45.8918298], [4.8395055, 45.8917962]], [[4.838894, 45.8914377], [4.8387867, 45.8914452], [4.8386794, 45.8914228], [4.8387116, 45.8913108], [4.838835, 45.8912697], [4.8389047, 45.8913892], [4.838894, 45.8914377]]]}}]}